p_name,Address,Response_Address,x,y,dist_MRT,station
30創富,臺北市萬華區菜園里12鄰康定路84號,臺北市萬華區菜園里12鄰康定路84號,121.50223,25.041989,472.65123600094535,龍山寺Longshan Temple
55TIMELESS,臺北市信義區安康里9鄰信義路五段57號,臺北市信義區安康里9鄰信義路五段57號,121.569432,25.033321,32.7625228771529,象山Xiangshan
BR4,臺北士林區舊佳里文林路584號,臺北市士林區舊佳里22鄰文林路582號,121.523874,25.098205,320.21639528604925,芝山Zhishan
ForestPark吉美富徠,臺北市內湖區江南街65巷25號之1,臺北市內湖區港墘里5鄰江南街65巷25之1號,121.578142,25.077096,380.7819736731109,港墘Gangqian
H24雲端,臺北市中山區正守里12鄰長安東路一段52巷10號,臺北市中山區正守里12鄰長安東路一段52巷10號,121.527835,25.047751,541.93186150214,善導寺Shandao Temple
JR羅斯福,臺北市文山區景行里22鄰景後街143巷12號,臺北市文山區景行里22鄰景後街143巷12號,121.542614,24.990286,247.87727150133435,景美Jingmei
LIVINGMORE,臺北市大安區仁愛里1鄰復興南路一段175號,臺北市大安區仁愛里1鄰復興南路一段175號,121.54398,25.040911,48.01527335068836,忠孝復興Zhongxiao Fuxing
LivingMore,臺北市大安區龍生里11鄰瑞安街155巷11號,臺北市大安區龍生里11鄰瑞安街155巷11號,121.539548,25.026071,432.44847733134617,科技大樓Technology Building
MAGNOLIA木蘭居B座,臺北市北投區八仙里4鄰中央南路二段14之2號,臺北市北投區八仙里4鄰中央南路二段14之2號,121.50022,25.126902,130.4016342283066,奇岩Qiyan
MAGNOLIA木蘭居C座,臺北市文山區萬盛街89號,臺北市文山區萬盛里12鄰萬盛街89號,121.542631,25.005586,453.4470463305058,萬隆Wanlong
ONE+,臺北市中山區中山里4鄰中山北路二段59巷1號,臺北市中山區中山里4鄰中山北路二段59巷1號,121.523176,25.055916,303.9668484991047,雙連Shuanglian
THEGREENHOUSE,臺北市中山區中山里4鄰中山北路二段59巷9號,臺北市中山區中山里4鄰中山北路二段59巷9號,121.523621,25.055907,350.7270084247091,雙連Shuanglian
TWINLINE,臺北市北投區永欣里6鄰天母西路117巷32弄5號,臺北市北投區永欣里6鄰天母西路117巷32弄5號,121.524705,25.120536,905.2377193632666,明德Mingde
Vigorlin東門,臺北市北投區永欣里6鄰天母西路117巷32弄8號,臺北市北投區永欣里6鄰天母西路117巷32弄8號,121.524272,25.120018,849.7616135626953,明德Mingde
一心居,臺北市內湖區明湖里10鄰康寧路三段187號,臺北市內湖區明湖里10鄰康寧路三段187號,121.611974,25.06997,174.73403229741214,東湖Donghu
一方璞真,臺北市中山區中山北路三段53號,臺北市中山區圓山里13鄰中山北路三段53號,121.522891,25.067716,373.87294906658735,圓山Yuanshan
一樹巷,臺北市中山區力行里19鄰遼寧街105巷36號,臺北市中山區力行里19鄰遼寧街105巷36號,121.543064,25.051079,127.6381440362738,南京復興Nanjing Fuxing
一豐洲,臺北市中正區文祥里14鄰信義路二段79巷32號,臺北市中正區文祥里14鄰信義路二段79巷32號,121.526984,25.035976,231.0988502759107,東門Dongmen
一青。悠,臺北市北投區中和里2鄰中和街391巷2弄9號,臺北市北投區中和里2鄰中和街391巷2弄9號,121.497879,25.142645,614.4887132294305,新北投Xinbeitou
一頁城中,臺北市松山區中正里8鄰敦化北路4巷25弄18號,臺北市松山區中正里8鄰敦化北路4巷25弄18號,121.546289,25.049724,294.8749168506963,南京復興Nanjing Fuxing
三創爵鼎,臺北市北投區中和里10鄰大屯路7巷11之1號,臺北市北投區中和里10鄰大屯路7巷11之1號,121.499598,25.142325,452.1458831425176,新北投Xinbeitou
三悉-磊若,臺北市北投區奇岩里8鄰奇岩路210號,臺北市北投區奇岩里8鄰奇岩路210號,121.508644,25.128347,509.34616637054273,唭哩岸Qilian
三悉-風昀,臺北市北投區溫泉里19鄰溫泉路68之10號,臺北市北投區溫泉里19鄰溫泉路68之10號,121.504909,25.134969,288.09839972296464,新北投Xinbeitou
三發景悅,臺北市中正區光復里8鄰衡陽路69號,臺北市中正區光復里8鄰衡陽路69號,121.511767,25.042377,385.54018321194474,西門Ximen
三磐舍紫II,臺北市大安區民輝里19鄰市民大道三段118號,臺北市大安區民輝里19鄰市民大道三段118號,121.533959,25.044947,190.8917631350106,忠孝新生Zhongxiao Xinsheng
三豐AIT,臺北市中山區樂群二路66號,臺北市中山區成功里14鄰樂群二路66號,121.554073,25.07973,342.6318977825401,劍南路Jiannan Rd.
三豐長安匯,臺北市中山區樂群二路66號,臺北市中山區成功里14鄰樂群二路66號,121.554073,25.07973,342.6318977825401,劍南路Jiannan Rd.
三豐雲迪,臺北市北投區奇岩路237號,臺北市北投區奇岩里22鄰奇岩路237號,121.509946,25.127903,579.3654960977229,唭哩岸Qilian
上城若水,臺北市士林區社中街335號,臺北市士林區永倫里4鄰社中街335號,121.504414,25.092191,1520.5929959844366,三重國小Sanchong Elementary School
世心玉,臺北市內湖區紫雲里3鄰康寧路一段179號,臺北市內湖區紫雲里3鄰康寧路一段179號,121.595763,25.078519,335.3120715073292,內湖Neihu
世田安,臺北市大同區大有里18鄰民生西路367號,臺北市大同區大有里18鄰民生西路367號,121.510486,25.057005,434.32461816918425,北門Beimen
世界明珠,臺北市大同區大有里19鄰歸綏街208之1號,臺北市大同區大有里19鄰歸綏街208之1號,121.511036,25.058192,348.8323858509449,大橋頭Daqiaotou
世豐是山,臺北市中山區正守里1鄰市民大道三段5號,臺北市中山區正守里1鄰市民大道三段5號,121.53127,25.04613,284.98809834586274,忠孝新生Zhongxiao Xinsheng
世達懿居,臺北市中山區正守里10鄰長安東路一段24之3號,臺北市中山區正守里10鄰長安東路一段24之3號,121.525688,25.048781,359.16452303207524,善導寺Shandao Temple
中國開發內湖洲子街廠辦大樓案,臺北市中山區朱園里15鄰松江路45巷10號,臺北市中山區朱園里15鄰松江路45巷10號,121.533591,25.047889,246.7094982132409,松江南京Songjiang Nanjing
中山Q1,臺北市南港區東明里2鄰南港路二段59號,臺北市南港區東明里2鄰南港路二段59號,121.598849,25.053477,644.9735336277631,昆陽Kunyang
中山TED,臺北市北投區磺港路102-110號,臺北市北投區清江里5鄰磺港路102號,121.503496,25.130416,388.56652559575264,奇岩Qiyan
中山世紀,臺北市中正區和平西路一段63號,臺北市中正區南福里10鄰和平西路一段63號,121.519127,25.026602,368.69126155138486,中正紀念堂Chiang Kai-Shek Memorial Hall
中山北美,臺北市內湖區洲子街176號,臺北市內湖區西湖里13鄰洲子街176號,121.567468,25.081257,58.3457039702226,西湖Xihu
中山官邸,臺北市中山區恆安里7鄰民權東路一段61之1號,臺北市中山區恆安里7鄰民權東路一段61之1號,121.525052,25.062902,152.48378844833584,中山國小Zhongshan Elementary School
中山富寓,臺北市中山區民安里11鄰中山北路二段24之3號,臺北市中山區民安里11鄰中山北路二段24之3號,121.522358,25.053919,230.07898683670902,中山Zhongshan
中山富御,臺北市中山區中山北路二段123號,臺北市中山區聚葉里1鄰中山北路二段123號,121.523172,25.061208,345.2862318639506,雙連Shuanglian
中山晶綻,臺北市士林區福志里19鄰中山北路五段698巷18號,臺北市士林區福志里19鄰中山北路五段698巷18號,121.52831,25.097449,324.4752179588935,士林Shilin
中山松悅,臺北市中山區恆安里2鄰民權東路一段15號,臺北市中山區恆安里2鄰民權東路一段15號,121.523436,25.06298,332.1109975938572,中山國小Zhongshan Elementary School
中山水美,臺北市中山區新生里14鄰新生北路二段149巷32號,臺北市中山區新生里14鄰新生北路二段149巷32號,121.528676,25.061997,254.21809440131244,中山國小Zhongshan Elementary School
中山直美,臺北市中山區恆安里1鄰中山北路二段175號,臺北市中山區恆安里1鄰中山北路二段175號,121.522769,25.063071,383.63269672475457,民權西路Minquan W. Rd.
中山簡美,臺北市中山區民安里3鄰長安西路46號,臺北市中山區民安里3鄰長安西路46號,121.520284,25.050049,153.70801160685355,中山Zhongshan
中山隱,臺北市中山區長安西路19巷22弄18號,臺北市中山區民安里7鄰長安西路19巷22弄18號,121.520832,25.051171,100.69836529595243,中山Zhongshan
中山鴻鼎,臺北市大同區雙連里12鄰雙連街8號,臺北市大同區雙連里12鄰雙連街8號,121.51903,25.058022,178.02578772359786,雙連Shuanglian
中山麗池,臺北市中山區新生北路二段76巷10號,臺北市中山區中山里15鄰新生北路二段76巷10號,121.526979,25.057448,311.31125696341763,中山國小Zhongshan Elementary School
中山．吉美,臺北市中山區中山北路二段108號,臺北市中山區集英里7鄰中山北路二段108號,121.522739,25.06049,281.98665151422307,雙連Shuanglian
中工耘翠,臺北市中山區雙城街25巷13號,臺北市中山區晴光里10鄰雙城街25巷15號,121.525346,25.066258,239.11241031940182,中山國小Zhongshan Elementary School
中星仁愛旭,臺北市中山區集英里7鄰中山北路二段98號,臺北市中山區集英里7鄰中山北路二段98號,121.522707,25.059882,260.90739622872275,雙連Shuanglian
中正H25,臺北市中山區中山里18鄰新生北路二段68巷15號,臺北市中山區中山里18鄰新生北路二段68巷15號,121.526148,25.05649,361.9736408529461,中山國小Zhongshan Elementary School
中正城閱.,臺北市中山區聚盛里5鄰錦州街30巷9號,臺北市中山區聚盛里5鄰錦州街30巷9號,121.524874,25.05956,250.4326946955412,中山國小Zhongshan Elementary School
中正沂凰,臺北市松山區鵬程里15鄰健康路325巷25弄2號,臺北市松山區鵬程里15鄰健康路325巷25弄2號,121.566997,25.056398,375.63320144404605,南京三民Nanjing Sanmin
中正藏璽,臺北市中正區東門里13鄰紹興南街28之2號,臺北市中正區東門里13鄰紹興南街28之2號,121.523166,25.038001,396.6418823539986,善導寺Shandao Temple
中正雋詠,臺北市中正區幸福里14鄰齊東街70巷17號,臺北市中正區幸福里14鄰齊東街70巷17號,121.527844,25.042862,527.9577779715512,善導寺Shandao Temple
中正首賦,臺北市萬華區雙園里17鄰莒光路347巷32號,臺北市萬華區雙園里17鄰莒光路347巷32號,121.496905,25.030076,443.7355063254143,龍山寺Longshan Temple
中正鼎站,臺北市中正區臨沂街32巷2號,臺北市中正區文北里24鄰臨沂街32巷2號,121.529531,25.039657,349.12617791445996,東門Dongmen
中瑋吾年,臺北市中正區南福里23鄰羅斯福路一段58巷28之2號,臺北市中正區南福里23鄰羅斯福路一段58巷28之2號,121.518429,25.030504,130.54104652840795,中正紀念堂Chiang Kai-Shek Memorial Hall
中研苑士,臺北市中正區網溪里21鄰廈門街99巷6之1號,臺北市中正區網溪里21鄰廈門街99巷6之1號,121.518029,25.023695,525.8226750876909,中正紀念堂Chiang Kai-Shek Memorial Hall
中研首席,臺北市中正區新營里7鄰愛國東路88號,臺北市中正區新營里7鄰愛國東路88號,121.519968,25.033351,192.23992440364918,中正紀念堂Chiang Kai-Shek Memorial Hall
丰景,臺北市中正區同安街65號,臺北市中正區河堤里1鄰同安街65號,121.521562,25.023813,207.66457970058886,古亭Guting
丹棠MORI,臺北市南港區重陽里10鄰重陽路39巷66之5號,臺北市南港區重陽里10鄰重陽路39巷66之5號,121.594789,25.056217,375.5524369866527,昆陽Kunyang
久云嘉潤日出,臺北市南港區舊莊里16鄰南深路23巷19號,臺北市南港區舊莊里16鄰南深路23巷19號,121.621899,25.037696,1136.2364254255824,南港展覽館Taipei Nangang Exhibition Center
久年慕舍,臺北市南港區中研里7鄰福山街44巷9號,臺北市南港區中研里7鄰福山街44巷9號,121.61708,25.045342,581.6624656790515,南港展覽館Taipei Nangang Exhibition Center
久年銀座,臺北市文山區景華里2鄰羅斯福路六段305號,臺北市文山區景華里2鄰羅斯福路六段305號,121.541372,24.994115,143.7431011232044,景美Jingmei
久年長慶,臺北市中山區中山北路一段83巷12號,臺北市中山區正得里7鄰中山北路一段83巷12號,121.522824,25.050262,304.9132095255456,中山Zhongshan
久康青沺,臺北市南港區向陽路196巷1號,臺北市南港區重陽里14鄰向陽路196巷1號,121.593934,25.056674,369.4307732407693,昆陽Kunyang
亞伯信義雅晑,臺北市萬華區仁德里1鄰昆明街181號,臺北市萬華區仁德里1鄰昆明街181號,121.504212,25.039487,479.3870286327467,西門Ximen
亞昕敦南,臺北市大安區龍安里12鄰和平東路一段167號,臺北市大安區龍安里12鄰和平東路一段167號,121.531718,25.026536,519.6144526604754,台電大樓Taipower Building
京之硯,臺北市大同區建功里15鄰重慶北路一段67號,臺北市大同區建功里15鄰重慶北路一段67號,121.514141,25.051815,195.97319941447404,台北車站Taipei Main Station
京王,臺北市文山區木柵里7鄰木柵路三段85巷8弄1號,臺北市文山區木柵里7鄰木柵路三段85巷8弄1號,121.567479,24.989566,529.5585674316142,萬芳社區Wanfang Community
令和,臺北市信義區興雅里23鄰永吉路30巷157弄19號,臺北市信義區興雅里23鄰永吉路30巷157弄19號,121.569519,25.042366,482.1814581393474,市政府Taipei City Hall
仰士林,臺北市大安區臥龍里3鄰敦南街88號,臺北市大安區臥龍里3鄰敦南街88號,121.547604,25.020962,552.1825911515859,科技大樓Technology Building
仰山,臺北市大同區酒泉街124號,臺北市大同區鄰江里26鄰酒泉街124號,121.512929,25.071984,507.8069925974329,大橋頭Daqiaotou
伊邸,臺北市大同區建明里8鄰長安西路138之3號,臺北市大同區建明里8鄰長安西路138之3號,121.517441,25.050685,257.706312848953,台北車站Taipei Main Station
佳元松江,臺北市北投區奇岩里1鄰公舘路92巷1弄19號,臺北市北投區奇岩里1鄰公舘路92巷1弄19號,121.504741,25.129894,475.91361108203006,奇岩Qiyan
佳元當代美術館,臺北市士林區前港里7鄰後港街134巷40號,臺北市士林區前港里7鄰後港街134巷40號,121.520276,25.08678,545.3463232277475,劍潭Jiantan
佳元臨沂,臺北市內湖區葫洲里4鄰民權東路六段280巷17號,臺北市內湖區葫洲里4鄰民權東路六段280巷17號,121.605327,25.071784,210.4940314088897,葫洲Huzhou
信松廣場,臺北市松山區復興北路501號,臺北市松山區民福里1鄰復興北路509號,121.544479,25.065684,282.6567133764477,中山國中Zhongshan Junior High School
信義CASA,臺北市中山區中庄里20鄰民生東路二段127巷23號,臺北市中山區中庄里20鄰民生東路二段127巷23號,121.532308,25.059809,97.66143304438273,行天宮Xingtian Temple
信義Joyce,臺北市中山區民生東路二段25號,臺北市中山區中庄里1鄰民生東路二段25號,121.528589,25.058149,357.85428800483834,中山國小Zhongshan Elementary School
信義THE1,臺北市中正區幸市里4鄰臨沂街25巷4號,臺北市中正區幸市里4鄰臨沂街25巷4號,121.530652,25.041478,255.67205619790008,忠孝新生Zhongxiao Xinsheng
信義VS復興,臺北市信義區松隆路231號,臺北市信義區四育里1鄰松隆路231號,121.577008,25.048297,131.40261670117107,松山Songshan
信義WOW,臺北市信義區惠安里17鄰吳興街524巷20號,臺北市信義區惠安里17鄰吳興街524巷20號,121.568123,25.022203,639.3802899869311,象山Xiangshan
信義一品,臺北市信義區市民大道六段108號,臺北市信義區雅祥里19鄰市民大道六段108號,121.57254,25.049133,577.2887446876894,松山Songshan
信義之森,臺北市信義區長春里12鄰忠孝東路五段423巷26號,臺北市信義區長春里12鄰忠孝東路五段423巷26號,121.575447,25.042358,128.32351570527274,永春Yongchun
信義大悅,臺北市大安區仁慈里5鄰信義路四段19巷6之3號,臺北市大安區仁慈里5鄰信義路四段19巷6之3號,121.544368,25.033985,109.21188828826011,大安Daan
信義好境,臺北市信義區敦厚里6鄰松隆路9巷30弄13號,臺北市信義區敦厚里6鄰松隆路9巷30弄13號,121.567804,25.044429,343.52913564204874,市政府Taipei City Hall
信義御邸,臺北市信義區中行里29鄰中坡南路201巷18號,臺北市信義區中行里29鄰中坡南路201巷18號,121.586504,25.041398,491.3379491181151,後山埤Houshanpi
信義藏豐,臺北市信義區黎順里3鄰信安街103巷5號,臺北市信義區黎順里3鄰信安街103巷5號,121.556826,25.025303,422.0906137480577,六張犁Liuzhangli
信義謙石,臺北市信義區東興路63號,臺北市信義區新仁里19鄰東興路63號,121.566987,25.047318,357.5757499949853,南京三民Nanjing Sanmin
信義陶山,臺北市南港區成福里18鄰成福路121巷9號,臺北市南港區成福里18鄰成福路121巷9號,121.587902,25.042099,622.5077498143479,後山埤Houshanpi
信義香禔,臺北市大安區光明里3鄰信義路二段66號,臺北市大安區光明里3鄰信義路二段66號,121.526079,25.034372,297.34954755132134,東門Dongmen
信義麗心,臺北市信義區景勤里3鄰吳興街190巷10之1號,臺北市信義區景勤里3鄰吳興街190巷10之1號,121.562151,25.028178,313.4189340733869,台北101/世貿Taipei 101/World Trade Center
僑駿ONARI,臺北市士林區天玉里5鄰天母北路9巷8號,臺北市士林區天玉里5鄰天母北路9巷8號,121.526872,25.119049,1044.1084594731212,明德Mingde
元利信義聯勤-北棟,臺北市大安區光明里2鄰杭州南路二段25巷25號,臺北市大安區光明里2鄰杭州南路二段25巷25號,121.524794,25.033484,439.1714459527288,東門Dongmen
元利信義聯勤-南棟,臺北市信義區泰和里29鄰吳興街600巷100弄20號,臺北市信義區泰和里29鄰吳興街600巷100弄20號,121.572241,25.017479,941.53075965812,象山Xiangshan
元利森活莊園,臺北市信義區敦厚里8鄰松隆路42號,臺北市信義區敦厚里8鄰松隆路42號,121.567978,25.043741,340.4183981550038,市政府Taipei City Hall
光里蘊,臺北市士林區福志里18鄰中山北路五段616號,臺北市士林區福志里18鄰中山北路五段616號,121.527968,25.096468,257.74183988833016,士林Shilin
全坤X101,臺北市大安區龍圖里6鄰建國南路二段57號,臺北市大安區龍圖里6鄰建國南路二段57號,121.538188,25.031783,379.391646983724,大安森林公園Daan Park
全坤威峰,臺北市大安區龍圖里6鄰建國南路二段65號,臺北市大安區龍圖里6鄰建國南路二段65號,121.53819,25.031489,384.19019205067286,大安森林公園Daan Park
全坤富御,臺北市文山區試院里29鄰木柵路一段12之1號,臺北市文山區試院里29鄰木柵路一段12之1號,121.546204,24.986656,582.1029722530743,大坪林Dapinglin
全坤御大安.,臺北市內湖區週美里行善路235號,臺北市內湖區週美里24鄰行善路235號,121.582911,25.06044,834.4222545414918,松山Songshan
全坤御峰,臺北市信義區中興里12鄰信義路四段450巷,臺北市信義區中興里2鄰信義路四段450巷9號,121.558628,25.032278,520.8257326014192,台北101/世貿Taipei 101/World Trade Center
全坤衡峰,臺北市萬華區富福里10鄰大理街1之5號,臺北市萬華區富福里10鄰大理街1之5號,121.503119,25.034603,368.27157879223813,龍山寺Longshan Temple
全盈信義,臺北市中正區螢雪里3鄰重慶南路三段124巷3號,臺北市中正區螢雪里3鄰重慶南路三段124巷3號,121.516394,25.024495,522.1076643480006,中正紀念堂Chiang Kai-Shek Memorial Hall
全陽豐會,臺北市大安區住安里7鄰信義路四段30巷5之1號,臺北市大安區住安里7鄰信義路四段30巷5之1號,121.544715,25.032862,129.51663575359035,大安Daan
全陽馥,臺北市大安區芳和里3鄰樂業街94巷27號,臺北市大安區芳和里3鄰樂業街94巷27號,121.550563,25.020605,338.50919194211417,六張犁Liuzhangli
八德137,臺北市中正區光復里9鄰衡陽路103號,臺北市中正區光復里9鄰衡陽路103號,121.509136,25.042252,93.10258282891868,西門Ximen
八方玥,臺北市信義區大道里7鄰忠孝東路五段790巷22弄17號,臺北市信義區大道里7鄰忠孝東路五段790巷22弄17號,121.582001,25.042366,166.96720136464594,後山埤Houshanpi
公園大院-森活館,臺北市士林區福志里23鄰中山北路五段736號,臺北市士林區福志里23鄰中山北路五段736號,121.527285,25.098927,334.7387288230406,士林Shilin
公園大院-樂活館,臺北市南港區三重里16鄰經貿一路166號,臺北市南港區三重里16鄰經貿一路166號,121.619623,25.057798,277.7267684312801,南港展覽館Taipei Nangang Exhibition Center
公園首席,臺北市中山區朱崙里2鄰八德路二段137巷20號,臺北市中山區朱崙里2鄰八德路二段137巷20號,121.537308,25.04716,548.8817924488875,松江南京Songjiang Nanjing
公園首璽,臺北市南港區南港路一段171巷,臺北市南港區南港里2鄰南港路一段171巷18號,121.613022,25.054565,450.66846715440863,南港軟體園區Nangang Software Park
六德．拾翫,臺北市北投區中庸里1鄰中和街219之1號,臺北市北投區中庸里1鄰中和街219之1號,121.501319,25.139343,194.26787050032695,新北投Xinbeitou
冠德羅斯福,臺北市北投區中庸里1鄰中和街219之1號,臺北市北投區中庸里1鄰中和街219之1號,121.501319,25.139343,194.26787050032695,新北投Xinbeitou
冠輝京品,臺北市大同區雙連里14鄰興城街73之2號,臺北市大同區雙連里14鄰興城街73之2號,121.517713,25.059557,264.2094372973538,民權西路Minquan W. Rd.
力方飛,臺北市文山區順興里17鄰木新路二段218巷11號,臺北市文山區順興里17鄰木新路二段218巷11號,121.567334,24.983961,855.5533361780166,萬芳社區Wanfang Community
力欣百漾,臺北市大安區錦泰里6鄰杭州南路二段61巷11號,臺北市大安區錦泰里6鄰杭州南路二段61巷11號,121.523007,25.030298,229.60247043188167,古亭Guting
力麒天沐,臺北市中正區羅斯福路三段136號,臺北市中正區林興里20鄰羅斯福路三段136號,121.528153,25.020439,16.713128629829015,台電大樓Taipower Building
力麒御品,臺北市萬華區雙園里1鄰艋舺大道194號,臺北市萬華區雙園里3鄰艋舺大道194號,121.499795,25.032561,158.00844789951006,龍山寺Longshan Temple
勝輝馥敦,臺北市北投區福興里3鄰承德路七段32巷3弄,臺北市北投區福興里6鄰承德路七段32巷3弄17號,121.510605,25.111954,570.7368681539164,石牌Shipai
勤美璞真城仰,臺北市中山區林森北路442-1號,臺北市中山區聚葉里13鄰林森北路442之1號,121.525464,25.060642,159.72121671953275,中山國小Zhongshan Elementary School
勤耕延吉,臺北市北投區榮華里1鄰天母西路120巷43號,臺北市北投區榮華里1鄰天母西路120巷43號,121.522654,25.118054,643.2527461376177,明德Mingde
北城‧羅斯福,臺北市萬華區雙園里11鄰莒光路328號,臺北市萬華區雙園里11鄰莒光路328號,121.497495,25.031248,349.36212822233296,龍山寺Longshan Temple
匯泰鴻,臺北市松山區中崙里3鄰復興南路一段47巷9弄9號,臺北市松山區中崙里3鄰復興南路一段47巷9弄9號,121.544613,25.045294,233.03261296840557,忠孝復興Zhongxiao Fuxing
千荷田,臺北市松山區慶城街45號,臺北市松山區松基里16鄰慶城街48號,121.546893,25.055143,360.1200017199731,南京復興Nanjing Fuxing
南京&光北,臺北市松山區復源里6鄰光復南路46巷36號,臺北市松山區復源里6鄰光復南路46巷36號,121.554654,25.045734,433.17699280241936,國父紀念館Sun Yat-Sen Memorial Hall
南京富心,臺北市中正區頂東里3鄰羅斯福路三段74之1號,臺北市中正區頂東里3鄰羅斯福路三段74之1號,121.526256,25.022079,226.71290262719742,台電大樓Taipower Building
南京葒,臺北市中山區中央里12鄰建國北路二段68號,臺北市中山區中央里12鄰建國北路二段68號,121.53646,25.054478,402.7291351781701,松江南京Songjiang Nanjing
南京阿曼,臺北市中正區廈安里8鄰汀州路一段78號,臺北市中正區廈安里8鄰汀州路一段78號,121.506125,25.031126,585.5481826889787,小南門Xiaonanmen
南方莊園,臺北市松山區吉祥里20鄰光復北路85巷23號,臺北市松山區吉祥里20鄰光復北路85巷23號,121.559048,25.050585,555.0662570815988,國父紀念館Sun Yat-Sen Memorial Hall
南海1號苑,臺北市中山區力行里19鄰遼寧街101巷31之2號,臺北市中山區力行里19鄰遼寧街101巷31之2號,121.543334,25.050871,112.9689935687115,南京復興Nanjing Fuxing
南港首善,臺北市中山區興亞里18鄰松江路108巷20之1號,臺北市中山區興亞里18鄰松江路108巷20之1號,121.530739,25.051358,262.54609131849855,松江南京Songjiang Nanjing
南風裡,臺北市中山區力行里28鄰南京東路三段12號,臺北市中山區力行里28鄰南京東路三段12號,121.537436,25.051791,485.09603090310594,松江南京Songjiang Nanjing
博愛賦御,臺北市文山區興光里3鄰興德路47巷25號,臺北市文山區興光里3鄰興德路47巷25號,121.555398,25.001217,312.2633754935287,辛亥Xinhai
印涼州,臺北市中正區忠勤里26鄰南海路83號,臺北市中正區忠勤里26鄰南海路83號,121.508343,25.028877,477.9121118776644,小南門Xiaonanmen
原樹,臺北市南港區重陽路449號,臺北市南港區三重里2鄰重陽路449號,121.610111,25.059439,473.09634338134424,東湖Donghu
原禾呈真,臺北市中正區建國里3鄰愛國西路9號,臺北市中正區建國里3鄰愛國西路9號,121.507831,25.037268,285.09133009441814,西門Ximen
原禾御,臺北市中正區光復里8鄰博愛路109之1號,臺北市中正區光復里8鄰博愛路109之1號,121.511605,25.042558,368.17163269439874,西門Ximen
原禾賦,臺灣臺北市大同區涼州街10號,臺北市大同區延平里3鄰涼州街30號,121.512648,25.060625,153.12362524413228,大橋頭Daqiaotou
友座君碧,臺北市中山區新生里14鄰中原街113號,臺北市中山區新生里14鄰中原街113號,121.529039,25.061886,295.09458785308436,中山國小Zhongshan Elementary School
友座君綻2森鄰,臺北市文山區指南里17鄰指南路三段103號,臺北市文山區指南里17鄰指南路三段103號,121.581052,24.982524,932.3550016893206,動物園Taipei Zoo
友座安森,臺北市北投區大興街、清江路口,臺北市北投區中央里16鄰大興街18號,121.498262,25.129809,125.05274710210549,北投Beitou
友座臻璽,臺北市士林區芝山里8鄰德行東路336號,臺北市士林區芝山里8鄰德行東路336號,121.537728,25.110257,1606.3034935291287,士林Shilin
古亭匯,臺北市內湖區內湖里1鄰內湖路二段285號,臺北市內湖區內湖里1鄰內湖路二段285號,121.59068,25.082433,420.66148559561583,內湖Neihu
古亭匯2,臺北市內湖區金龍里11鄰金龍路67巷10號,臺北市內湖區金龍里11鄰金龍路67巷10號,121.592778,25.085947,224.91024313336843,內湖Neihu
台北市大安區新生南路一段161巷預售屋,臺北市大安區民炤里9鄰新生南路一段161巷4之13號,臺北市大安區民炤里9鄰新生南路一段161巷4之13號,121.533731,25.034551,144.5409195300366,大安森林公園Daan Park
台大JIA,臺北市大安區芳和里15鄰和平東路三段212巷43之2號,臺北市大安區芳和里15鄰和平東路三段212巷43之2號,121.553199,25.021348,141.64482519672598,六張犁Liuzhangli
台大公館,臺北市中正區板溪里2鄰南昌路二段137號,臺北市中正區板溪里2鄰南昌路二段137號,121.522189,25.026042,78.23095887910362,古亭Guting
台大學,臺北市中正區板溪里3鄰南昌路二段134號,臺北市中正區板溪里3鄰南昌路二段134號,121.522648,25.025442,58.784983065865596,古亭Guting
台大新碩,臺北市大安區民炤里16鄰新生南路一段161巷32號,臺北市大安區民炤里16鄰新生南路一段161巷32號,121.536156,25.0345,155.53352316133495,大安森林公園Daan Park
台大龍門,臺北市中正區螢圃里4鄰汀州路二段95號,臺北市中正區螢圃里4鄰汀州路二段95號,121.518142,25.025351,429.11417479426865,中正紀念堂Chiang Kai-Shek Memorial Hall
台大龍門-藏閱,臺北市信義區雅祥里基隆路一段89號,臺北市信義區雅祥里基隆路一段89號,121.5652301,25.046161,290.45346597268116,市政府Taipei City Hall
台太學,臺北市中正區水源里4鄰羅斯福路四段170號,臺北市中正區水源里4鄰羅斯福路四段170號,121.536314,25.012255,279.69412735787995,公館Gongguan
合矩青山,臺北市大安區古風里9鄰泰順街60巷18弄6號,臺北市大安區古風里9鄰泰順街60巷18弄6號,121.529781,25.022068,195.62049901133472,台電大樓Taipower Building
合矩青澄,臺北市大安區龍淵里25鄰和平東路二段76巷17弄3號,臺北市大安區龍淵里25鄰和平東路二段76巷17弄3號,121.540055,25.023413,407.80859007936306,科技大樓Technology Building
合砌埕家,臺北市大安區龍淵里25鄰和平東路二段76巷17弄3之1號,臺北市大安區龍淵里25鄰和平東路二段76巷17弄3之1號,121.540145,25.023354,399.9696638670586,科技大樓Technology Building
吉吉美,臺北市中正區水源里4鄰羅斯福路四段170號,臺北市中正區水源里4鄰羅斯福路四段170號,121.536314,25.012255,279.69412735787995,公館Gongguan
吉祥居,臺灣臺北市中山區雙城街23-1號,臺北市中山區恆安里7鄰雙城街5之1號,121.524455,25.063585,224.44699085808267,中山國小Zhongshan Elementary School
吉祥．如藝,臺北市士林區富光里11鄰葫蘆街30巷26號,臺北市士林區富光里11鄰葫蘆街30巷26號,121.509953,25.08067,1057.8006393131,大橋頭Daqiaotou
吉美信義,臺北市大同區永樂里16鄰南京西路267號,臺北市大同區永樂里16鄰南京西路267號,121.509562,25.053398,233.85757120278836,北門Beimen
吉美君悅,臺北市文山區景行里19鄰景後街190之1號,臺北市文山區景行里19鄰景後街190之1號,121.541711,24.990058,172.19789128374308,景美Jingmei
吉美大安森林花園,臺北市內湖區東湖里20鄰康樂街136巷30弄11之1號,臺北市內湖區東湖里20鄰康樂街136巷30弄11之1號,121.617153,25.072141,698.2686125925335,東湖Donghu
吉美大安花園,臺北市信義區永吉路19號,臺北市信義區雅祥里7鄰永吉路19號,121.567981,25.045901,411.7232037875644,市政府Taipei City Hall
吉美天悅,臺灣臺北市文山區萬芳路28號,臺北市文山區萬芳里33鄰萬芳路28號,121.570393,24.996293,287.57397745431115,萬芳社區Wanfang Community
吉美樂河,臺北市文山區景行里4鄰羅斯福路六段455巷18號,臺北市文山區景行里4鄰羅斯福路六段455巷18號,121.540533,24.990019,122.9011613658762,景美Jingmei
吉美艾麗,臺北市大安區龍生里11鄰瑞安街155巷11號,臺北市大安區龍生里11鄰瑞安街155巷11號,121.539548,25.026071,432.44847733134617,科技大樓Technology Building
吉達國際科技大樓,臺灣臺北市大安區大安路二段80號,臺北市大安區住安里8鄰大安路二段80號,121.545821,25.031641,263.5314419659047,大安Daan
向陽上冠,臺北市北投區榮光里14鄰石牌路一段166巷91之1號,臺北市北投區榮光里14鄰石牌路一段166巷91之1號,121.515113,25.112456,129.97659006160856,石牌Shipai
吾上琚,臺北市大同區國順里4鄰迪化街二段172巷11號,臺北市大同區國順里4鄰迪化街二段172巷11號,121.509952,25.067228,384.73673553211614,大橋頭Daqiaotou
和平官址,臺灣臺北市松山區八德路四段480號,臺北市松山區慈祐里14鄰八德路四段480號,121.570072,25.049572,608.6148486828746,南京三民Nanjing Sanmin
和暘AI,臺北市內湖區港墘里20鄰瑞光路358巷30弄2之1號,臺北市內湖區港墘里20鄰瑞光路358巷30弄2之1號,121.572288,25.076501,372.3157133170404,港墘Gangqian
和暘W,臺灣臺北市中正區漢口街一段69號1樓,臺北市中正區光復里3鄰漢口街一段69號,121.511975,25.045238,320.2796871587537,北門Beimen
和暘信邑,臺北市北投區裕民里24鄰裕民六路111號,臺北市北投區裕民里24鄰裕民六路111號,121.517374,25.114733,202.18759764835235,石牌Shipai
和歌誠美,臺北市中正區板溪里6鄰牯嶺街95巷8號,臺北市中正區板溪里6鄰牯嶺街95巷8號,121.519703,25.025987,353.14359761718447,古亭Guting
和邦羅斯芙,臺灣臺北市信義區和平東路三段195號,臺北市信義區黎平里1鄰和平東路三段195號,121.553505,25.023693,43.64059820361943,六張犁Liuzhangli
和風悅,臺北市文山區景中街18號,臺北市文山區景華里1鄰景中街19號,121.542118,24.993036,176.4785183755118,景美Jingmei
品嘉-箴品序,臺北市信義區五常里5鄰永吉路225巷4弄1號,臺北市信義區五常里5鄰永吉路225巷4弄1號,121.574146,25.046185,391.3514938011352,永春Yongchun
品嘉-馥御中央,臺北市中山區恆安里3鄰中山北路二段183巷4之12號,臺北市中山區恆安里3鄰中山北路二段183巷4之12號,121.523773,25.063663,299.5671260252089,中山國小Zhongshan Elementary School
品嘉77,臺北市文山區景華里2鄰羅斯福路六段311號,臺北市文山區景華里2鄰羅斯福路六段311號,121.541376,24.994002,138.78694040517072,景美Jingmei
品嘉Whouse,臺北市松山區安平里17鄰南京東路五段291巷29弄29號,臺北市松山區安平里17鄰南京東路五段291巷29弄29號,121.567066,25.05293,272.54629028159366,南京三民Nanjing Sanmin
品嘉傳承,臺北市大同區民權里24鄰民權西路136號,臺北市大同區民權里24鄰民權西路136號,121.516409,25.06275,323.81380447466586,民權西路Minquan W. Rd.
品嘉敦品藏,臺北市北投區中庸里1鄰雙全街8號,臺北市北投區中庸里1鄰雙全街8號,121.501222,25.139095,192.1804529148859,新北投Xinbeitou
品嘉新明殿,臺北市北投區豐年里11鄰中央北路二段215號,臺北市北投區豐年里11鄰中央北路二段215號,121.492063,25.138103,736.9053453640867,復興崗Fuxinggang
品陽大苑,臺北市中正區漢口街一段77號,臺北市中正區光復里3鄰漢口街一段73之2號,121.511797,25.045241,308.22011234498024,北門Beimen
品陽大苑A.B區,臺北市大同區重慶里15鄰承德路三段332號,臺北市大同區重慶里15鄰承德路三段332號,121.519851,25.075049,216.89834079818596,圓山Yuanshan
品陽大苑C區,臺北市大安區群賢里13鄰四維路216巷6之3號,臺北市大安區群賢里13鄰四維路216巷6之3號,121.547535,25.025872,455.9144415908657,科技大樓Technology Building
問鼎匯,臺北市內湖區週美里8鄰新明路413巷1弄6號,臺北市內湖區週美里8鄰新明路413巷1弄6號,121.581582,25.054822,510.6710464903589,松山Songshan
喆美,臺北市中正區龍興里13鄰和平西路二段98巷12號,臺北市中正區龍興里13鄰和平西路二段98巷12號,121.510443,25.028759,397.17377866114197,小南門Xiaonanmen
嘉源埕驛,臺北市中正區龍興里6鄰和平西路二段98巷11之1號,臺北市中正區龍興里6鄰和平西路二段98巷11之1號,121.51034,25.029115,378.2014750428986,小南門Xiaonanmen
嘉潤一御,臺北市中正區龍興里4鄰和平西路二段70巷8之2號,臺北市中正區龍興里4鄰和平西路二段70巷8之2號,121.511348,25.028711,401.0254963594545,小南門Xiaonanmen
嘉磐日光,臺北市大同區朝陽里1鄰延平北路一段139號,臺北市大同區朝陽里1鄰延平北路一段139號,121.511914,25.053267,289.0857085879735,北門Beimen
嘉磐華山雍翠,臺北市大同區玉泉里6鄰延平北路一段66巷8號,臺北市大同區玉泉里6鄰延平北路一段66巷8號,121.51152,25.051538,188.05350065369225,北門Beimen
四方荷韻,臺北市中山區吉林路188號,臺北市中山區中原里11鄰吉林路188號,121.530081,25.057804,362.6513582515286,行天宮Xingtian Temple
國協天玥,臺北市北投區育仁路10號號旁,臺北市北投區大同里8鄰育仁路10號,121.498617,25.132719,51.04010779223443,北投Beitou
國家企業廣場TAIPEIONE,臺北市中山區正得里5鄰中山北路一段33巷37號,臺北市中山區正得里5鄰中山北路一段33巷37號,121.523484,25.048459,213.60527900274312,善導寺Shandao Temple
國揚吉麟,臺北市中正區重慶南路二段80號,臺北市中正區龍光里6鄰重慶南路二段80號,121.514799,25.030529,406.59088502161956,中正紀念堂Chiang Kai-Shek Memorial Hall
國泰悠境,臺北市南港區三重里16鄰南港路一段32號,臺北市南港區三重里16鄰南港路一段32號,121.617622,25.05533,13.774003611574752,南港展覽館Taipei Nangang Exhibition Center
國泰悠陽,臺北市中山區力行里2鄰復興北路26號,臺北市中山區力行里2鄰復興北路26號,121.543678,25.048904,202.07782080392704,南京復興Nanjing Fuxing
國泰承真,臺北市中山區中原里15鄰吉林路170號,臺北市中山區中原里15鄰吉林路170號,121.530064,25.056873,384.4568402494846,行天宮Xingtian Temple
國泰沐善,臺北市南港區東新里20鄰向陽路120巷2弄20號,臺北市南港區東新里20鄰向陽路120巷2弄20號,121.596542,25.054722,440.626671958806,昆陽Kunyang
國泰華威豐年,臺北市南港區東新里20鄰向陽路120巷2弄20號,臺北市南港區東新里20鄰向陽路120巷2弄20號,121.596542,25.054722,440.626671958806,昆陽Kunyang
國泰蒔美,臺北市內湖區週美里27鄰行善路281巷19弄12號,臺北市內湖區週美里27鄰行善路281巷19弄12號,121.584733,25.061593,986.52142425911,文德Wende
國泰雍萃,臺北市內湖區行善路295號,臺北市內湖區週美里27鄰行善路295號,121.584458,25.061976,964.7955404833084,文德Wende
國王雙子星,臺北市北投區大業路520號,臺北市北投區大同里4鄰大業路520號,121.496717,25.134846,275.4397143602759,北投Beitou
國美大奇,臺北市內湖區行善路281巷,臺北市內湖區週美里24鄰行善路281巷32號,121.584001,25.060635,922.114782083379,後山埤Houshanpi
國美大真,臺北市北投區建民里10鄰文林北路75巷69號,臺北市北投區建民里10鄰文林北路75巷69號,121.517263,25.103325,411.4514956120589,明德Mingde
國美山翫水,臺北市大同區建功里19鄰鄭州路83巷11號,臺北市大同區建功里19鄰鄭州路83巷11號,121.51275,25.050142,282.9318820379506,台北車站Taipei Main Station
國美華爾道夫三,臺北市北投區奇岩里1鄰三合街一段82巷116號,臺北市北投區奇岩里1鄰三合街一段82巷116號,121.504788,25.129334,463.8165140678856,奇岩Qiyan
國美詠山,臺北市中山區成功里14鄰敬業三路161巷59號,臺北市中山區成功里14鄰敬業三路161巷59號,121.554603,25.079373,337.31317977564987,劍南路Jiannan Rd.
國美青田,臺北市北投區奇岩里1鄰三合街一段82巷119號,臺北市北投區奇岩里1鄰三合街一段82巷119號,121.504209,25.129718,421.17184974464067,奇岩Qiyan
國賓伊頓,臺北市中山區復華里20鄰長春路258巷27號,臺北市中山區復華里20鄰長春路258巷27號,121.539132,25.053754,548.9038295081026,南京復興Nanjing Fuxing
國賓官邸,臺北市內湖區港華里7鄰港墘路8號,臺北市內湖區港華里7鄰港墘路8號,121.577687,25.083548,354.9296412266327,港墘Gangqian
國賓皇琚,臺北市大安區龍安里8鄰青田街11巷8之1號,臺北市大安區龍安里8鄰青田街11巷8之1號,121.53274,25.02689,447.08355620446395,大安森林公園Daan Park
國雄中正,臺北市文山區政大一街239號,臺北市文山區政大里9鄰政大一街239號,121.585081,24.986466,935.1488800669687,動物園Taipei Zoo
圓山1號院,臺北市內湖區成功路二段317巷1-17號,臺北市內湖區寶湖里27鄰成功路二段317巷1號,121.590852,25.069858,844.96075709276,文德Wende
圓山ART,臺北市中山區民安里18鄰中山北路二段66號,臺北市中山區民安里18鄰中山北路二段66號,121.522585,25.056757,226.0835227714733,雙連Shuanglian
圓山富璟,臺北市中正區永昌里15鄰詔安街240號,臺北市中正區永昌里15鄰詔安街240號,121.509122,25.02689,538.8290956973168,小南門Xiaonanmen
圓山帝寶,臺北市士林區義信里1鄰基河路15號,臺北市士林區義信里1鄰基河路15號,121.524837,25.087038,128.69511117321858,劍潭Jiantan
圓山綻,臺北市士林區承德里2鄰承德路四段88號,臺北市士林區承德里2鄰承德路四段88號,121.523055,25.082706,257.82569012877514,劍潭Jiantan
在壹起,臺北市士林區福中里5鄰福港街212號,臺北市士林區福中里5鄰福港街212號,121.517549,25.085809,838.9530825035476,劍潭Jiantan
城中京湛,臺北市士林區承德路四段72號,臺北市士林區承德里20鄰承德路四段73之1號,121.523563,25.081821,244.67197576047096,劍潭Jiantan
城市莊園,臺北市大同區保安里15鄰哈密街68巷18號,臺北市大同區保安里15鄰哈密街68巷18號,121.518233,25.073288,237.87744658209326,圓山Yuanshan
城心曜曜,臺北市大安區民輝里17鄰新生南路一段97巷1號,臺北市大安區民輝里17鄰新生南路一段97巷1號,121.533842,25.041231,123.02740952506923,忠孝新生Zhongxiao Xinsheng
城西蒔光,臺北市萬華區福星里14鄰漢口街二段53巷17號,臺北市萬華區福星里14鄰漢口街二段53巷17號,121.506433,25.046384,324.8108951043611,西門Ximen
埕曦河畔,臺北市大同區民權里8鄰民權西路160巷26弄88號,臺北市大同區民權里8鄰民權西路160巷26弄88號,121.514894,25.061596,260.28068983244873,大橋頭Daqiaotou
基泰大安,臺北市大同區雙連里12鄰承德路二段147號,臺北市大同區雙連里12鄰承德路二段147號,121.51839,25.057915,248.82522884714618,雙連Shuanglian
基泰大直,臺北市萬華區和德里5鄰興義街17號,臺北市萬華區和德里5鄰興義街17號,121.492431,25.027152,948.2126625904165,龍山寺Longshan Temple
基泰建中,臺北市萬華區青山里4鄰環河南路二段31號,臺北市萬華區青山里4鄰環河南路二段31號,121.49768,25.039051,323.94363180941474,龍山寺Longshan Temple
基泰碧湖,臺北市大安區民炤里14鄰建國南路一段304巷55號,臺北市大安區民炤里14鄰建國南路一段304巷55號,121.535,25.035292,111.04358499088575,大安森林公園Daan Park
基泰磺溪,臺北市中山區大直里5鄰大直街94巷1弄7號,臺北市中山區大直里5鄰大直街94巷1弄7號,121.547897,25.084699,323.5897597788005,大直Dazhi
墨花香,臺北市萬華區雙園里12鄰莒光路260號,臺北市萬華區雙園里12鄰莒光路260號,121.499163,25.031296,242.9207211673934,龍山寺Longshan Temple
士林一品,臺北市內湖區內湖路一段741號,臺北市內湖區港富里4鄰內湖路一段741號,121.578501,25.078945,385.47940358694774,港墘Gangqian
士林竣,臺北市北投區建民里1鄰文林北路16巷25號,臺北市北投區建民里1鄰文林北路16巷25號,121.519732,25.105295,275.4258925542961,明德Mingde
士科京璽,臺北市大安區古莊里10鄰羅斯福路二段111號,臺北市大安區古莊里10鄰羅斯福路二段111號,121.524632,25.02447,224.25851102629866,古亭Guting
士科大院.,臺北市士林區基河路151號1樓,臺北市士林區義信里5鄰基河路151號,121.523579,25.08877,281.2762261564605,劍潭Jiantan
士科潤山,臺北市士林區舊佳里19鄰中正路248號,臺北市士林區舊佳里19鄰中正路248號,121.524967,25.095265,172.7439796719043,士林Shilin
夏沐時,臺北市士林區葫東里9鄰重慶北路四段222號,臺北市士林區葫東里9鄰重慶北路四段222號,121.511467,25.085867,1279.4747723616365,圓山Yuanshan
大喆,臺北市大安區羅斯福路三段283巷21弄7號,臺北市大安區羅斯福路三段283巷21弄7號,121.5287862,25.019966,81.68849370521727,台電大樓Taipower Building
大安Corner,臺北市北投區承德路六段文承路口,臺北市北投區建民里20鄰承德路六段335之2號,121.511246,25.104156,770.1039214879783,石牌Shipai
大安MONEY璞寓,臺北市北投區立農里17鄰立農街一段257巷7弄7號,臺北市北投區立農里17鄰立農街一段257巷7弄7號,121.505201,25.1204,120.04119007266317,唭哩岸Qilian
大安MONEY賦寓,臺北市中山區民生東路二段93巷15號,臺北市中山區中庄里18鄰民生東路二段93巷15號,121.531057,25.058623,245.04098973441444,行天宮Xingtian Temple
大安信藝館,臺北市大安區古風里6鄰羅斯福路三段159號,臺北市大安區古風里6鄰羅斯福路三段177號,121.527878,25.021249,44.36388266520491,台電大樓Taipower Building
大安富中,臺北市大安區古風里6鄰羅斯福路三段159號,臺北市大安區古風里6鄰羅斯福路三段177號,121.527878,25.021249,44.36388266520491,台電大樓Taipower Building
大安富御,臺北市大安區文昌街257號,臺北市大安區通化里8鄰文昌街258之1號,121.556122,25.032188,296.16020508225205,信義安和Xinyi Anhe
大安富筑,臺北市大安區和安里8鄰信義路三段147巷11弄15之1號,臺北市大安區和安里8鄰信義路三段147巷11弄15之1號,121.542477,25.034808,161.34285985151917,大安Daan
大安得逸,臺北市大安區臥龍街296號,臺北市大安區黎和里14鄰臥龍街296號,121.559295,25.016843,113.3000169436382,麟光Linguang
大安文樺,臺北市大安區通安里7鄰通化街38巷9號,臺北市大安區通安里7鄰通化街38巷9號,121.553715,25.030982,138.00201936861828,信義安和Xinyi Anhe
大安昕境,臺北市大安區大學里14鄰羅斯福路三段283巷21弄7號,臺北市大安區大學里14鄰羅斯福路三段283巷21弄7號,121.531312,25.019936,352.59445159368846,台電大樓Taipower Building
大安永康,臺北市大安區芳和里1鄰樂業街118巷11號,臺北市大安區芳和里1鄰樂業街118巷11號,121.551742,25.020538,242.5429360939495,六張犁Liuzhangli
大安潮,臺北市大安區羅斯福路三段283巷,臺北市大安區大學里24鄰羅斯福路三段283巷12之2號,121.531702,25.018384,344.973032098298,公館Gongguan
大安謙韵,臺北市大安區福住里6鄰永康街17巷17號,臺北市大安區福住里6鄰永康街17巷17號,121.530489,25.032387,212.3042507717869,東門Dongmen
大安釀,臺灣臺北市大安區潮州街97號,臺北市大安區錦安里5鄰潮州街97號,121.527126,25.028817,343.0868560200214,東門Dongmen
大將首驛,臺北市大安區大安路一段206巷15號,臺北市大安區仁慈里7鄰大安路一段206巷17之1號,121.544739,25.034817,171.2732056250355,大安Daan
大承,臺北市大安區復興南路二段55號,臺北市大安區住安里2鄰復興南路二段55號,121.54376,25.03094,118.81235251700387,大安Daan
大湖朕寶,臺北市北投區大同街105號,臺北市北投區大同里2鄰大同街105號,121.498366,25.134446,154.22651002687752,北投Beitou
大理ONE,臺北市大同區延平北路一段152號,臺北市大同區永樂里6鄰延平北路一段152號,121.511658,25.053763,294.44933178755116,北門Beimen
大直紅點,臺北市內湖區成功路四段61巷53-55號,臺北市內湖區紫星里1鄰成功路四段61巷53號,121.593779,25.079758,237.8829031001531,內湖Neihu
天匯,臺北市萬華區糖廍里3鄰大理街135號,臺北市萬華區糖廍里3鄰大理街135號,121.497316,25.034279,285.09366028466707,龍山寺Longshan Temple
天成河悅,臺北市中山區金泰里14鄰植福路189號,臺北市中山區金泰里14鄰植福路189號,121.55991,25.083745,484.449959763413,劍南路Jiannan Rd.
天母上苑,臺北市北投區福興里7鄰石牌路一段58巷36號,臺北市北投區福興里7鄰石牌路一段58巷36號,121.512095,25.112787,398.1756243676796,石牌Shipai
天母常玉,臺北市文山區景福街220號,臺北市文山區景慶里5鄰景福街220號,121.538768,24.993858,227.58580703380323,景美Jingmei
天母桓琚,臺北市士林區天母里7鄰中山北路七段141巷17之4號,臺北市士林區天母里7鄰中山北路七段141巷17之4號,121.530296,25.122869,1440.5936395932408,芝山Zhishan
天母鑲玉,臺北市北投區裕民四路2巷,臺北市北投區振華里17鄰裕民四路2巷24號,121.516161,25.114602,67.09665901311789,石牌Shipai
天璽,臺北市士林區天和里3鄰天母東路105巷9弄6號,臺北市士林區天和里3鄰天母東路105巷9弄6號,121.535957,25.119157,1763.6625578548924,芝山Zhishan
天綺,臺北市北投區永欣里15鄰石牌路二段315巷33之1號,臺北市北投區永欣里15鄰石牌路二段315巷33之1號,121.521923,25.123822,888.1854014949442,明德Mingde
天賞大願,臺北市中山區雙城街32巷15號,臺北市中山區晴光里13鄰雙城街32巷15號,121.52323,25.066338,413.0709137938321,中山國小Zhongshan Elementary School
天開圖畫,臺北市北投區奇岩里26鄰公舘路376巷6弄6號,臺北市北投區奇岩里26鄰公舘路376巷6弄6號,121.503687,25.123874,299.23514406982355,奇岩Qiyan
太子華威,臺北市文山區保儀路46號,臺北市文山區木新里14鄰保儀路47號,121.568687,24.987542,646.1214635023672,萬芳社區Wanfang Community
太平洋敦南麗舍,臺北市南港區成福里12鄰東新街170巷21之1號,臺北市南港區成福里12鄰東新街170巷21之1號,121.593219,25.044442,350.66958018619727,昆陽Kunyang
太平洋蒔景,臺北市士林區至誠路一段138號,臺北市士林區岩山里6鄰至誠路一段138號,121.534763,25.101635,1059.3034417557415,士林Shilin
奇岩綠境,臺北市大安區建安里13鄰敦化南路一段177巷18號,臺北市大安區建安里13鄰敦化南路一段177巷18號,121.550081,25.042988,143.20256362383063,忠孝敦化Zhongxiao Dunhua
如意琚,臺北市信義區崇德街161號,臺北市信義區黎順里6鄰崇德街161號,121.557134,25.023848,359.92606931558385,麟光Linguang
威堡今綻,臺北市北投區公舘路243號,臺北市北投區奇岩里10鄰公舘路243號,121.508354,25.126,378.7232663324672,唭哩岸Qilian
安家2MORE,臺北市內湖區東湖里10鄰康樂街110巷6號,臺北市內湖區東湖里10鄰康樂街110巷6號,121.618611,25.070601,690.0071835062423,南港軟體園區Nangang Software Park
安家湛,臺北市中山區集英里9鄰天祥路16號,臺北市中山區集英里9鄰天祥路16號,121.520943,25.060936,185.37680886281177,雙連Shuanglian
安家秀,臺北市萬華區大理街28號,臺北市萬華區富福里8鄰大理街28號,121.50172,25.034559,214.72892882552932,龍山寺Longshan Temple
安家藏玉,臺北市文山區明興里15鄰秀明路一段7號,臺北市文山區明興里15鄰秀明路一段7號,121.563661,24.989384,728.487277357217,萬芳社區Wanfang Community
安縵莊園,臺北市萬華區青山里4鄰環河南路二段5巷2號,臺北市萬華區青山里4鄰環河南路二段5巷2號,121.497854,25.039591,332.8828807100113,龍山寺Longshan Temple
宏國大道城B棟,臺北市中正區幸福里17鄰齊東街82巷43之6號,臺北市中正區幸福里17鄰齊東街82巷43之6號,121.528917,25.042532,443.56345437114936,忠孝新生Zhongxiao Xinsheng
宏國大道城D棟,臺北市內湖區內湖路三段60巷39號,臺北市內湖區碧山里5鄰內湖路三段60巷39號,121.593329,25.088436,302.93691694611147,內湖Neihu
宏國大道城Ｃ棟,臺北市大同區承德路二段58號,臺北市大同區光能里9鄰承德路二段59號,121.518393,25.055441,273.99813975709316,中山Zhongshan
宏廷富山滙,臺北市大同區承德路二段58號,臺北市大同區光能里9鄰承德路二段59號,121.518393,25.055441,273.99813975709316,中山Zhongshan
宏普國貿2,臺北市大同區承德路二段58號,臺北市大同區光能里9鄰承德路二段59號,121.518393,25.055441,273.99813975709316,中山Zhongshan
宏普新邑,臺北市文山區富山路5號,臺北市文山區華興里18鄰富山路5號,121.553693,24.988872,787.5078272252717,萬芳醫院Wanfang Hospital
宏普鉑金苑,臺北市內湖區湖元里18鄰新湖二路146巷33號,臺北市內湖區湖元里18鄰新湖二路146巷33號,121.578695,25.063647,795.4127607164678,松山Songshan
宏普陽明,臺北市北投區三合街一段82巷93-107號,臺北市北投區奇岩里1鄰三合街一段82巷93號,121.504186,25.129019,396.66305198686985,奇岩Qiyan
宏普頤和,臺北市南港區三重里31鄰經貿二路235巷31號,臺北市南港區三重里31鄰經貿二路235巷31號,121.615731,25.061606,102.17923886014756,南港軟體園區Nangang Software Park
宏泰HOME,臺北市北投區文林北路75巷文林北路175巷,臺北市北投區建民里10鄰文林北路75巷69號,121.517263,25.103325,411.4514956120589,明德Mingde
宏盛得意山莊,臺北市中山區八德路二段146巷1弄,臺北市中山區埤頭里3鄰八德路二段146巷1弄8號,121.537537,25.04571,550.7540292630405,忠孝新生Zhongxiao Xinsheng
宏盛掬白,臺北市內湖區內湖路一段203巷28號,臺北市內湖區西康里16鄰內湖路一段203巷28號,121.563548,25.085068,441.8891530326885,西湖Xihu
宏盛淬白,臺北市北投區三合街一段117巷53號,臺北市北投區奇岩里16鄰三合街一段117巷53號,121.50466,25.125126,304.0410571378787,唭哩岸Qilian
宏盛陽明,臺北市內湖區寶湖里20鄰民權東路六段210巷43號,臺北市內湖區寶湖里20鄰民權東路六段210巷43號,121.597804,25.065967,1034.6088266001905,昆陽Kunyang
宏築信義,臺北市中山區下埤里18鄰龍江路429巷16號,臺北市中山區下埤里18鄰龍江路429巷16號,121.541808,25.066769,436.9670373500441,中山國中Zhongshan Junior High School
宏築天藴,臺北市士林區福志里21鄰福志路86號,臺北市士林區福志里21鄰福志路86號,121.529022,25.098859,438.4205632558328,士林Shilin
官峰,臺北市信義區和平東路三段463巷,臺北市信義區黎安里9鄰和平東路三段463巷17號,121.559775,25.019024,113.05619330048748,麟光Linguang
家居奇玉,臺北市士林區天玉街40號,臺北市士林區天玉里23鄰天玉街40號,121.529381,25.121123,1298.465247833419,芝山Zhishan
家居安曼,臺北市士林區福志路120號,臺北市士林區福志里22鄰福志路120號,121.527618,25.098507,327.70992544230467,士林Shilin
家居璽玉,臺北市北投區奇岩里3鄰三合街一段82巷62弄22號,臺北市北投區奇岩里3鄰三合街一段82巷62弄22號,121.505527,25.128477,449.21142791459704,唭哩岸Qilian
家騰真,臺北市北投區文林北路131號,臺北市北投區文林里18鄰文林北路132號,121.516801,25.10648,295.46869149895514,明德Mingde
富享家,臺北市北投區北科路,臺北市北投區建民里15鄰北科路192號,121.513673,25.10713,478.1497026533825,石牌Shipai
富享榮華,臺北市內湖區樂康里20鄰康樂街136巷18弄19號,臺北市內湖區樂康里20鄰康樂街136巷18弄19號,121.618258,25.071041,697.9158259502757,南港軟體園區Nangang Software Park
富域,臺北市內湖區康寧路三段12號,臺北市內湖區葫洲里20鄰康寧路三段12號,121.606714,25.072728,49.395614259324766,葫洲Huzhou
富裔CORNER,臺北市中正區羅斯福路一段29號,臺北市中正區南福里24鄰羅斯福路一段30之2號,121.51898,25.031376,111.43902364178108,中正紀念堂Chiang Kai-Shek Memorial Hall
富貴莊園,臺北市北投區清江里4鄰中央南路一段83號,臺北市北投區清江里4鄰中央南路一段83號,121.501321,25.131148,301.5915970562346,北投Beitou
富邦藝庭,臺北市大安區仁慈里7鄰大安路一段206巷17之1號,臺北市大安區仁慈里7鄰大安路一段206巷17之1號,121.544739,25.034817,171.2732056250355,大安Daan
富邦藝樹,臺北市大安區仁慈里7鄰信義路四段53巷30號,臺北市大安區仁慈里7鄰信義路四段53巷30號,121.544997,25.034669,189.56272284717426,大安Daan
富邦醴仁,臺北市內湖區東湖里20鄰康樂街136巷30弄11號,臺北市內湖區東湖里20鄰康樂街136巷30弄11號,121.617189,25.072047,699.6547624841794,東湖Donghu
寶舖212,臺北市大安區義村里22鄰仁愛路三段143巷24號,臺北市大安區義村里22鄰仁愛路三段143巷24號,121.542957,25.03959,148.93179537572053,忠孝復興Zhongxiao Fuxing
寶舖care,臺北市大安區建安里6鄰敦化南路一段161巷46之1號,臺北市大安區建安里6鄰敦化南路一段161巷46之1號,121.551402,25.043389,116.21437334796589,忠孝敦化Zhongxiao Dunhua
寶舖ＣＡＲＥ,臺北市中正區文北里13鄰金山南路一段53巷1號,臺北市中正區文北里13鄰金山南路一段53巷1號,121.529227,25.039103,310.401210075117,東門Dongmen
將作城心,臺北市中正區文盛里1鄰羅斯福路三段212號,臺北市中正區文盛里1鄰羅斯福路三段212號,121.529537,25.01912,178.55648572983432,台電大樓Taipower Building
將捷心裡?,臺北市中正區文盛里4鄰羅斯福路三段210巷12之2號,臺北市中正區文盛里4鄰羅斯福路三段210巷12之2號,121.528721,25.018197,159.33697586690676,台電大樓Taipower Building
將捷行書,臺北市中正區文盛里1鄰羅斯福路三段212號,臺北市中正區文盛里1鄰羅斯福路三段212號,121.529537,25.01912,178.55648572983432,台電大樓Taipower Building
小時代,臺北市中正區板溪里4鄰南昌路二段92號,臺北市中正區板溪里4鄰南昌路二段92號,121.521724,25.026225,127.99322792307407,古亭Guting
尚青苑,臺北市中山區恆安里9鄰雙城街13巷20之1號,臺北市中山區恆安里9鄰雙城街13巷20之1號,121.525073,25.064056,169.3267167401223,中山國小Zhongshan Elementary School
展宜常閑,臺北市松山區安平里4鄰三民路38號,臺北市松山區安平里4鄰三民路38號,121.563995,25.05328,123.55103706746117,南京三民Nanjing Sanmin
展宜詠喆,臺北市萬華區福星里15鄰開封街二段69號,臺北市萬華區福星里15鄰開封街二段69號,121.505135,25.047114,457.51893521634884,西門Ximen
山丘小墅,臺北市文山區華興里20鄰木柵路一段238巷2弄2號,臺北市文山區華興里20鄰木柵路一段238巷2弄2號,121.553641,24.987666,846.6022299613952,萬芳醫院Wanfang Hospital
山森原,臺北市士林區蘭興里11鄰磺溪街88巷10號,臺北市士林區蘭興里11鄰磺溪街88巷10號,121.523957,25.108435,351.276867700898,芝山Zhishan
山沺藏,臺北市信義區永吉路278巷46號,臺北市信義區五全里16鄰永吉路278巷46號,121.574087,25.044135,310.7282153260455,永春Yongchun
山釀,臺北市內湖區環山路二段26號,臺北市內湖區港華里19鄰環山路二段28之7號,121.572846,25.085946,424.8301790282827,港墘Gangqian
山隱曼曼,臺北市南港區三重里29鄰三重路41巷37之1號,臺北市南港區三重里29鄰三重路41巷37之1號,121.612844,25.060828,349.8662940629033,南港軟體園區Nangang Software Park
岳榕莊,臺北市內湖區寶湖里22鄰民權東路六段289巷31號,臺北市內湖區寶湖里22鄰民權東路六段289巷31號,121.601219,25.069382,688.1244888091303,葫洲Huzhou
岳泰峰山,臺北市內湖區港華里19鄰環山路二段50巷14弄5號,臺北市內湖區港華里19鄰環山路二段50巷14弄5號,121.57346,25.088038,499.97924956094965,港墘Gangqian
岳泰峰悦,臺北市士林區福林里16鄰中正路213巷9號,臺北市士林區福林里16鄰中正路213巷9號,121.526687,25.094809,89.82901534588271,士林Shilin
岳泰峰華,臺北市北投區八仙里18鄰中央南路二段28之6號,臺北市北投區八仙里18鄰中央南路二段28之6號,121.500007,25.125426,125.15128455892838,奇岩Qiyan
岳泰明德,臺北市文山區萬興里4鄰新光路一段66巷3號,臺北市文山區萬興里4鄰新光路一段66巷3號,121.573123,24.990382,457.5587727957542,木柵Muzha
岳泰豐鼎,臺北市內湖區紫雲里22鄰康寧路一段156巷22之2號,臺北市內湖區紫雲里22鄰康寧路一段156巷22之2號,121.593677,25.077826,349.49980953850627,內湖Neihu
峰源,臺北市文山區景行里2鄰景文街46之2號,臺北市文山區景行里2鄰景文街46之2號,121.541186,24.991382,77.93135003413902,景美Jingmei
峰雅,臺北市北投區振華里25鄰懷德街66巷22號,臺北市北投區振華里25鄰懷德街66巷22號,121.520763,25.112977,284.90128975903673,明德Mingde
崇偉南京Ｓ2,臺北市萬華區萬壽里9鄰漢口街二段88號,臺北市萬華區萬壽里9鄰漢口街二段88號,121.504434,25.046139,490.34988419510995,西門Ximen
嶺藏,臺北市大同區環河北路一段235號,臺北市大同區大有里16鄰環河北路一段241號,121.508528,25.057451,494.4949615069435,北門Beimen
希伯崙山莊,臺北市士林區天山里17鄰中山北路七段114巷7之1號,臺北市士林區天山里17鄰中山北路七段114巷7之1號,121.532864,25.122107,1597.19292310183,芝山Zhishan
帝璽,臺北市內湖區行善里4鄰新明路428巷2號,臺北市內湖區行善里4鄰新明路428巷2號,121.579381,25.054303,306.7146106434535,松山Songshan
師大浦玉,臺北市中正區板溪里10鄰牯嶺街95巷68號,臺北市中正區板溪里10鄰牯嶺街95巷68號,121.521202,25.025268,196.29635581438674,古亭Guting
師大芯,臺北市文山區興旺里21鄰福興路106巷37號,臺北市文山區興旺里21鄰福興路106巷37號,121.55015,25.007045,778.9586367331574,辛亥Xinhai
常殷峰澤,臺北市中山區建國北路二段58號,臺北市中山區中央里14鄰建國北路二段58號,121.536441,25.054095,393.3444576128252,松江南京Songjiang Nanjing
常殷泊美,臺北市大安區古莊里7鄰浦城街12之1號,臺北市大安區古莊里7鄰浦城街12之1號,121.526663,25.023781,244.08834189145122,台電大樓Taipower Building
幸福一町目,臺北市大安區古莊里10鄰羅斯福路二段117巷5號,臺北市大安區古莊里10鄰羅斯福路二段117巷5號,121.525257,25.024501,286.2092332525552,古亭Guting
幸褔安家,臺北市大同區永樂里6鄰延平北路一段108號,臺北市大同區永樂里6鄰延平北路一段108號,121.511187,25.052865,222.40947156023128,北門Beimen
序東騰,臺北市北投區奇岩里3鄰三合街一段82巷73號,臺北市北投區奇岩里3鄰三合街一段82巷73號,121.50433,25.128602,398.906939209709,奇岩Qiyan
康HOME,臺北市北投區光明路203號,臺北市北投區光明路203號,121.5010314,25.1360764,173.9105437357926,新北投Xinbeitou
康寶日出印象,臺北市萬華區德昌街201號,臺北市萬華區孝德里5鄰德昌街201號,121.493781,25.023399,963.4375091014394,龍山寺Longshan Temple
廣宇日和,臺北市中山區興亞里22鄰吉林路14巷7之1號,臺北市中山區興亞里22鄰吉林路14巷7之1號,121.529375,25.050622,419.3198028286089,松江南京Songjiang Nanjing
廣宇江南,臺北市萬華區福音里9鄰永福街102號,臺北市萬華區福音里9鄰永福街102號,121.502405,25.038845,353.75264388138413,龍山寺Longshan Temple
廣宇萬和,臺北市北投區關渡里1鄰大度路三段301巷22號,臺北市北投區關渡里1鄰大度路三段301巷22號,121.466139,25.122388,216.66329298364184,關渡Guandu
御品園,臺北市大同區雙連里15鄰承德路二段104號,臺北市大同區雙連里15鄰承德路二段104號,121.517955,25.058488,298.2672633973062,民權西路Minquan W. Rd.
御品行館,臺北市內湖區港墘里9鄰江南街71巷16弄16號,臺北市內湖區港墘里9鄰江南街71巷16弄16號,121.577622,25.075948,369.14380530295233,港墘Gangqian
御揚比漾,臺北市大同區國順里7鄰民族西路326號,臺北市大同區國順里7鄰民族西路326號,121.509687,25.068584,457.8474645576171,大橋頭Daqiaotou
御水苑,臺北市大同區延平北路三段5號,臺北市大同區隆和里19鄰延平北路三段5號,121.51127,25.063535,162.04597634722458,大橋頭Daqiaotou
御織間,臺北市北投區長安里15鄰光明路210號,臺北市北投區長安里15鄰光明路210號,121.503874,25.136044,158.12124777105996,新北投Xinbeitou
德孚昀品,臺北市中山區北安路669號,臺北市中山區大直里14鄰北安路669號,121.549361,25.085054,424.81252873617495,大直Dazhi
德悅悅,臺北市士林區天壽里14鄰天母西路50巷25號,臺北市士林區天壽里14鄰天母西路50巷25號,121.524991,25.117591,822.1406779014802,明德Mingde
德杰羽森-玥,臺北市南港區東新里2鄰東明街41號,臺北市南港區東新里2鄰東明街41號,121.60453,25.056163,336.29045019153284,南港Nangang
德杰羽森-琚,臺北市內湖區瑞陽里4鄰文德路22巷44弄124號,臺北市內湖區瑞陽里4鄰文德路22巷44弄124號,121.5809,25.076027,453.4316067521211,文德Wende
德杰羽森-璽,臺北市士林區文林路470號,臺北市士林區舊佳里19鄰文林路470號,121.524537,25.095918,233.74221430849965,士林Shilin
德林哲里,臺北市南港區東新里16鄰興南街98號,臺北市南港區東新里16鄰興南街98號,121.59999,25.055388,768.5847772033226,南港Nangang
德璞永樂,臺北市南港區東新里9鄰東明街123巷26號,臺北市南港區東新里9鄰東明街123巷26號,121.601065,25.055344,652.7170013915068,南港Nangang
德謙驛,臺北市南港區東新里19鄰興南街150號,臺北市南港區東新里19鄰興南街150號,121.598844,25.054919,672.220190024077,昆陽Kunyang
德運京鼎,臺北市士林區社園里25鄰永平街80巷10號,臺北市士林區社園里25鄰永平街80巷10號,121.505515,25.091519,1560.1287244274706,三重國小Sanchong Elementary School
德運官鼎,臺北市大同區南京西路227號,臺北市大同區永樂里9鄰南京西路227號,121.5107,25.053934,260.9364659894344,北門Beimen
德運永康,臺北市萬華區頂碩里3鄰艋舺大道100號,臺北市萬華區頂碩里3鄰艋舺大道100號,121.502722,25.033204,343.8691322457702,龍山寺Longshan Temple
心仝聚,臺北市中山區中原里1鄰南京東路二段23號,臺北市中山區中原里1鄰南京東路二段23號,121.528854,25.052281,469.6085978940197,松江南京Songjiang Nanjing
忠孝詠吉,臺北市中山區中庄里1鄰民生東路二段3號,臺北市中山區中庄里1鄰民生東路二段3號,121.528129,25.058183,323.95988028687697,中山國小Zhongshan Elementary School
忠泰世界廣場,臺北市大安區信義路二段220號,臺北市大安區福住里8鄰信義路二段222號,121.531334,25.033435,289.5436725648537,東門Dongmen
忠泰值,臺北市北投區建民里10鄰文林北路75巷69號,臺北市北投區建民里10鄰文林北路75巷69號,121.517263,25.103325,411.4514956120589,明德Mingde
忠泰同,臺北市南港區永吉路555號,臺北市南港區合成里10鄰永吉路555號,121.581579,25.045506,108.09600549396934,後山埤Houshanpi
忠泰旭美,臺北市中山區敬業二路70號,臺北市中山區成功里20鄰敬業二路86號,121.55455,25.082245,190.93429877796967,劍南路Jiannan Rd.
忠泰湛,臺北市中正區幸福里4鄰忠孝東路一段84巷2號,臺北市中正區幸福里4鄰忠孝東路一段84巷2號,121.524061,25.044239,100.74311202207777,善導寺Shandao Temple
忠泰繪,臺北市大同區隆和里4鄰重慶北路三段40號,臺北市大同區隆和里4鄰重慶北路三段40號,121.513469,25.065335,146.75512886109883,大橋頭Daqiaotou
忠泰衍見築,臺北市中山區聚盛里6鄰中山北路二段93巷7之3號,臺北市中山區聚盛里6鄰中山北路二段93巷7之3號,121.523822,25.059417,345.9633009553782,中山國小Zhongshan Elementary School
忠順大院Ⅱ,臺北市文山區木新里5鄰開元街48號,臺北市文山區木新里5鄰開元街48號,121.570002,24.989051,593.8581879631486,萬芳社區Wanfang Community
恆合中山,臺北市中山區德惠街12號,臺北市中山區晴光里14鄰德惠街12號,121.523776,25.06661,371.76338127949145,中山國小Zhongshan Elementary School
恆合江山,臺北市松山區中正里28鄰敦化北路120巷28號,臺北市松山區中正里28鄰敦化北路120巷28號,121.547184,25.054023,366.48285304239545,南京復興Nanjing Fuxing
恆合芝山,臺北市文山區忠順里17鄰忠順街二段85巷23號,臺北市文山區忠順里17鄰忠順街二段85巷23號,121.565102,24.986301,789.0287624577753,萬芳社區Wanfang Community
恆合鈺璽,臺北市中山區集英里7鄰錦西街4之5號,臺北市中山區集英里7鄰錦西街4之5號,121.522174,25.06022,222.03862964262456,雙連Shuanglian
恆岳尚美,臺北市北投區承德路七段166號,臺北市北投區吉慶里6鄰承德路七段166號,121.508698,25.113406,512.0643640650744,唭哩岸Qilian
恆悅植心苑,臺北市士林區文林路679號,臺北市士林區德華里13鄰文林路699號,121.521628,25.101353,139.83578491403858,芝山Zhishan
恆隆聚,臺北市中山區朱馥里22鄰長春路285號,臺北市中山區朱馥里22鄰長春路285號,121.541704,25.054731,292.3897948204974,南京復興Nanjing Fuxing
悅成功,臺北市松山區中正里21鄰復興北路81巷18號,臺北市松山區中正里21鄰復興北路81巷18號,121.544954,25.05113,125.61483089918555,南京復興Nanjing Fuxing
拾秋,臺北市中正區廈安里1鄰和平西路二段136號,臺北市中正區廈安里1鄰和平西路二段136號,121.50648,25.032202,524.0844019925746,小南門Xiaonanmen
捷運晶鑽,臺北市萬華區糖廍里8鄰和平西路三段274號,臺北市萬華區糖廍里8鄰和平西路三段274號,121.49515,25.035264,519.9483078495033,龍山寺Longshan Temple
揚昇君悅,臺北市內湖區湖興里5鄰成功路二段450號,臺北市內湖區湖興里5鄰成功路二段450號,121.58956,25.071991,655.6622657470814,文德Wende
揚昇君苑,臺北市大安區古莊里4鄰浦城街4巷6之2號,臺北市大安區古莊里4鄰浦城街4巷6之2號,121.526602,25.024262,269.4745482415591,台電大樓Taipower Building
揚昇君隆,臺北市北投區清江里9鄰民權街11號,臺北市北投區清江里9鄰民權街11號,121.501536,25.129315,226.67574032948684,奇岩Qiyan
揚昇松江苑,臺北市松山區中崙里1鄰復興南路一段1之1號,臺北市松山區中崙里1鄰復興南路一段1之1號,121.54413,25.047256,294.82242156594236,南京復興Nanjing Fuxing
揚昇松韻,臺北市松山區慈祐里5鄰松河街168號,臺北市松山區慈祐里5鄰松河街168號,121.576441,25.051189,153.8653500749734,松山Songshan
擎天森林,臺北市松山區東光里5鄰南京東路五段23巷4號,臺北市松山區東光里5鄰南京東路五段23巷4號,121.558079,25.052053,623.68069498566,國父紀念館Sun Yat-Sen Memorial Hall
政大爵鼎NO.1,臺北市中山區松江路56號,臺北市中山區興亞里13鄰松江路56號,121.532748,25.048831,188.69756062876377,松江南京Songjiang Nanjing
政大爵鼎NO.2,臺北市中山區中吉里21鄰松江路204巷9號,臺北市中山區中吉里21鄰松江路204巷9號,121.532476,25.057504,150.97134325051337,行天宮Xingtian Temple
政大豐匯,臺北市南港區東新里13鄰興南街11號,臺北市南港區東新里13鄰興南街11號,121.602744,25.05664,511.49902718727793,南港Nangang
政大首席,臺北市文山區指南里17鄰指南路三段77巷12號,臺北市文山區指南里17鄰指南路三段77巷12號,121.580995,24.982717,920.0655437918921,動物園Taipei Zoo
敦仰,臺北市文山區指南里17鄰指南路三段77巷12號,臺北市文山區指南里17鄰指南路三段77巷12號,121.580995,24.982717,920.0655437918921,動物園Taipei Zoo
敦化豐華,臺北市文山區政大里1鄰指南路二段221號,臺北市文山區政大里1鄰指南路二段221號,121.579683,24.98617,701.3905446306621,動物園Taipei Zoo
敦北VOGUE,臺北市文山區萬興里29鄰新光路一段32巷18號,臺北市文山區萬興里29鄰新光路一段32巷18號,121.572959,24.989115,531.7183292596201,木柵Muzha
敦北南京,臺北市松山區中正里10鄰敦化北路8號,臺北市松山區中正里10鄰敦化北路8號,121.548559,25.050453,340.0184383569055,台北小巨蛋Taipei Arena
敦北文華,臺北市松山區中正里20鄰南京東路三段256巷23號,臺北市松山區中正里20鄰南京東路三段256巷23號,121.544669,25.050646,121.7579684840524,南京復興Nanjing Fuxing
敦南WOW,臺北市松山區美仁里4鄰南京東路四段66號,臺北市松山區美仁里4鄰南京東路四段66號,121.554017,25.051435,277.5243705728149,台北小巨蛋Taipei Arena
敦南好好,臺北市松山區南京東路四段63號,臺北市松山區東勢里15鄰南京東路四段65號,121.552925,25.051846,155.11801396130457,台北小巨蛋Taipei Arena
敦南樞苑,臺北市松山區美仁里10鄰南京東路四段52巷10號,臺北市松山區美仁里10鄰南京東路四段52巷10號,121.553589,25.050663,238.90719187424605,台北小巨蛋Taipei Arena
敦南琴朗,臺北市大安區義安里6鄰安和路二段32巷31號,臺北市大安區義安里6鄰安和路二段32巷31號,121.550292,25.031825,370.05791063519484,信義安和Xinyi Anhe
敦南竣,臺北市大安區芳和里4鄰樂業街72巷16號,臺北市大安區芳和里4鄰樂業街72巷16號,121.5501,25.021535,359.73813110541664,六張犁Liuzhangli
敦南霖園,臺北市松山區敦化里13鄰敦化南路一段69號,臺北市松山區敦化里13鄰敦化南路一段69號,121.549268,25.045368,304.35433639148624,忠孝敦化Zhongxiao Dunhua
敦年˙博愛凱旋,臺北市大安區臥龍街84號,臺北市大安區臥龍里3鄰臥龍街84號,121.548077,25.020885,584.9249247128148,六張犁Liuzhangli
敦豐苑,臺北市大安區龍雲里17鄰四維路170巷5號,臺北市大安區龍雲里17鄰四維路170巷5號,121.547595,25.028286,479.1350733553122,科技大樓Technology Building
文与堂,臺北市大安區德安里11鄰敦化南路一段288號,臺北市大安區德安里11鄰敦化南路一段288號,121.54846,25.036552,410.10321151010993,忠孝敦化Zhongxiao Dunhua
文山晶硯,臺北市中正區光復里3鄰博愛路31之1號,臺北市中正區光復里3鄰博愛路31之1號,121.511512,25.045258,290.0710690604427,北門Beimen
文山萃,臺北市大同區民權里4鄰重慶北路二段225號,臺北市大同區民權里4鄰重慶北路二段225號,121.513724,25.061696,143.82025935669444,大橋頭Daqiaotou
文心casaait,臺北市大安區泰順街62巷,臺北市大安區古風里13鄰泰順街62巷16號,121.530297,25.021671,243.04077996372666,台電大樓Taipower Building
文心日日,臺北市文山區樟林里17鄰忠順街一段41巷18號,臺北市文山區樟林里17鄰忠順街一段41巷18號,121.558623,24.984838,848.2504841508269,萬芳醫院Wanfang Hospital
文心靜靜,臺北市文山區樟林里10鄰光輝路134巷12弄1號,臺北市文山區樟林里10鄰光輝路134巷12弄1號,121.55811,24.984618,859.4416305494401,萬芳醫院Wanfang Hospital
文普享享瑞安,臺北市內湖區清白里31鄰康寧路一段255巷71號,臺北市內湖區清白里31鄰康寧路一段255巷71號,121.59697,25.081686,307.23909667707215,內湖Neihu
文林君閱,臺北市內湖區寶湖里11鄰民權東路六段180巷42弄10之8號,臺北市內湖區寶湖里11鄰民權東路六段180巷42弄10之8號,121.592254,25.066749,955.4943439741735,昆陽Kunyang
文藝再興,臺北市內湖區寶湖里6鄰民權東路六段191巷38弄29號,臺北市內湖區寶湖里6鄰民權東路六段191巷38弄29號,121.597283,25.06908,907.6197551037403,內湖Neihu
文藝復興,臺北市大安區龍生里7鄰和平東路二段153巷3號,臺北市大安區龍生里7鄰和平東路二段153巷3號,121.541289,25.025503,241.5715895058575,科技大樓Technology Building
新光碧湖天,臺北市士林區福佳里4鄰美崙街12號,臺北市士林區福佳里4鄰美崙街12號,121.523409,25.097275,350.7387599104872,芝山Zhishan
新潤城峰,臺北市文山區明義里1鄰興隆路四段2號,臺北市文山區明義里1鄰興隆路四段2號,121.559112,24.990447,531.0548654345793,萬芳醫院Wanfang Hospital
新潤峰耘,臺北市北投區一德里2鄰中央北路四段30巷10號,臺北市北投區一德里2鄰中央北路四段30巷10號,121.478044,25.135535,579.4716210642123,忠義Zhongyi
新潤朗格,臺北市內湖區紫陽里22鄰文德路210巷30弄83號,臺北市內湖區紫陽里22鄰文德路210巷30弄83號,121.584058,25.076405,146.4762949128894,文德Wende
新潤潤心,臺北市內湖區行善路385號,臺北市內湖區石潭里13鄰行善路385號,121.585603,25.063912,856.6019666827485,文德Wende
新碩大砌,臺北市松山區寶清街103號,臺北市松山區安平里27鄰寶清街103之12號,121.568545,25.053131,435.2541939902405,南京三民Nanjing Sanmin
新碩文曲,臺北市中山區復華里15鄰南京東路三段89巷15弄2之6號,臺北市中山區復華里15鄰南京東路三段89巷15弄2之6號,121.538683,25.0531,594.1857633243119,南京復興Nanjing Fuxing
新碩華御,臺北市北投區建民里10鄰文承路28號,臺北市北投區建民里10鄰文承路28號,121.514086,25.104683,594.9281828871257,石牌Shipai
新碩華悅,臺北市北投區立賢里5鄰實踐街5巷7號,臺北市北投區立賢里5鄰實踐街5巷7號,121.507304,25.11496,362.91783102367594,唭哩岸Qilian
新美齊心居,臺北市大同區雙連里27鄰重慶北路二段123號,臺北市大同區雙連里27鄰重慶北路二段123號,121.513856,25.05777,342.96236679560315,大橋頭Daqiaotou
新美齊心岳,臺北市萬華區新起里22鄰貴陽街二段17巷17號,臺北市萬華區新起里22鄰貴陽街二段17巷17號,121.505565,25.039974,328.3451487768036,西門Ximen
新美齊硯,臺北市萬華區仁德里3鄰柳州街13號,臺北市萬華區仁德里3鄰柳州街13號,121.505495,25.039028,359.3767717802964,西門Ximen
方城市,臺北市南港區重陽路523號,臺北市南港區三重里22鄰重陽路523號,121.613179,25.062501,332.422388970778,東湖Donghu
日健邸,臺北市士林區中山北路六段405巷88號,臺北市士林區天壽里12鄰中山北路六段405巷88號,121.526574,25.117201,937.9483016976699,芝山Zhishan
日健闊,臺北市中正區延平南路89號,臺北市中正區光復里9鄰延平南路89號,121.510857,25.042939,288.2460228941777,西門Ximen
日安吉林,臺北市中山區中吉里13鄰吉林路91號,臺北市中山區中吉里13鄰吉林路91號,121.530275,25.05572,378.62332246269,松江南京Songjiang Nanjing
日新好好,臺北市中正區忠孝東路二段102號,臺北市中正區幸市里1鄰忠孝東路二段102號,121.530581,25.042735,259.3551430638175,忠孝新生Zhongxiao Xinsheng
日日好日,臺北市士林區重慶北路四段108號,臺北市士林區福順里4鄰重慶北路四段108號,121.512788,25.082843,1053.7430949833774,圓山Yuanshan
日日禾,臺北市中山區興亞里23鄰吉林路22巷13號,臺北市中山區興亞里23鄰吉林路22巷13號,121.529297,25.051113,423.3562869630198,松江南京Songjiang Nanjing
旺德福,臺北市大同區星明里1鄰太原路142之11號,臺北市大同區星明里1鄰太原路142之11號,121.516153,25.054098,302.79333296583087,台北車站Taipei Main Station
昀集柏寓,臺北市士林區芝山里28鄰德行東路258號,臺北市士林區芝山里28鄰德行東路258號,121.534373,25.109603,1301.097897693,士林Shilin
昆陽園,臺北市大同區民生西路298號,臺北市大同區延平里17鄰民生西路297之2號,121.513032,25.057483,337.3184159008704,大橋頭Daqiaotou
昇陽國際,臺北市北投區溫泉里17鄰民族街43巷13號,臺北市北投區溫泉里17鄰民族街43巷13號,121.506012,25.133793,428.016651750344,新北投Xinbeitou
昇陽逸居,臺北市中山區中山里10鄰民生東路一段18號,臺北市中山區中山里10鄰民生東路一段18號,121.52358,25.057876,328.3845606432527,雙連Shuanglian
昇陽麗方,臺北市南港區新光里10鄰昆陽街180號,臺北市南港區新光里10鄰昆陽街180號,121.593225,25.04821,131.21557111852826,昆陽Kunyang
明德馥,臺北市信義區興隆里2鄰基隆路一段350之33號,臺北市信義區興隆里2鄰基隆路一段350之33號,121.56122,25.036716,311.9716268394382,台北101/世貿Taipei 101/World Trade Center
明臣勸,臺北市萬華區中華路二段484巷,臺北市萬華區新和里27鄰中華路二段484巷14之7號,121.506621,25.026743,695.4346389886025,小南門Xiaonanmen
春聚,臺北市北投區中央北路四段541巷3號,臺北市北投區一德里17鄰中央北路四段541巷3號,121.468387,25.127659,185.05731411353233,關渡Guandu
昭揚天際,臺灣臺北市北投區建民路125巷6號,臺北市北投區石牌里13鄰建民路125巷6號,121.517154,25.110139,189.92488641027396,明德Mingde
景上川,臺北市文山區指南路一段63號,臺北市文山區木新里7鄰指南路一段63號,121.571257,24.98786,639.7914977545423,木柵Muzha
景美聯山-極品區,臺北市北投區永欣里5鄰石牌路二段318號,臺北市北投區永欣里5鄰石牌路二段318號,121.523191,25.119381,740.6597080014017,明德Mingde
景美聯山-臻品區,臺北市北投區福興里3鄰承德路七段90號,臺北市北投區福興里3鄰承德路七段90號,121.510437,25.111781,591.417033791127,石牌Shipai
晴山學,臺北市萬華區環河南路二段59號,臺北市萬華區環河南路二段59號,121.4942234,25.0378823,641.0615800799997,龍山寺Longshan Temple
晶硯,臺北市文山區羅斯福路六段198號,臺北市文山區景慶里1鄰羅斯福路六段198號,121.540873,24.993881,106.2944322856438,景美Jingmei
晶華MORI,臺北市文山區羅斯福路六段198號,臺北市文山區景慶里1鄰羅斯福路六段198號,121.540873,24.993881,106.2944322856438,景美Jingmei
曉南門,臺北市北投區稻香里14鄰稻香路168號,臺北市北投區稻香里14鄰稻香路168號,121.488899,25.143712,528.0600071790667,復興崗Fuxinggang
曜DC,臺北市中山區正義里8鄰林森北路107巷86之2號,臺北市中山區正義里8鄰林森北路107巷86之2號,121.527762,25.049574,576.8233701830004,善導寺Shandao Temple
最大直,臺北市中山區中山北路一段83巷12號,臺北市中山區正得里7鄰中山北路一段83巷12號,121.522824,25.050262,304.9132095255456,中山Zhongshan
有川翩翩,臺北市萬華區富福里13鄰昆明街289巷15之3號,臺北市萬華區富福里13鄰昆明街289巷15之3號,121.503996,25.036204,466.7804923405617,龍山寺Longshan Temple
有鄰,臺北市中山區永安里31鄰明水路383之1號,臺北市中山區永安里31鄰明水路383之1號,121.54603,25.077922,132.0415828009079,大直Dazhi
朗朗台大,臺北市大同區隆和里6鄰重慶北路三段11號,臺北市大同區隆和里6鄰重慶北路三段11號,121.513887,25.06443,146.61084052821107,大橋頭Daqiaotou
東方晶鑽,臺北市大安區大學里3鄰新生南路三段70巷6號,臺北市大安區大學里3鄰新生南路三段70巷6號,121.53335,25.019687,294.13255171127395,公館Gongguan
東昀昀,臺北市南港區三重里23鄰松河街770號,臺北市南港區三重里23鄰松河街770號,121.611831,25.061335,341.4538776215386,東湖Donghu
東村渥雲,臺北市信義區崇德街60巷,臺北市信義區黎平里3鄰崇德街60巷14之1號,121.554569,25.023921,161.8944059828795,六張犁Liuzhangli
東煒大可山石,臺北市士林區福志里13鄰福志路11號,臺北市士林區福志里13鄰福志路11號,121.531809,25.098279,678.9223688255039,士林Shilin
東煒常玉,臺北市北投區大同里15鄰北投路二段11號,臺北市北投區大同里15鄰北投路二段11號,121.498724,25.130672,68.66505603857824,北投Beitou
東騰元町,臺北市文山區博嘉里19鄰和平東路四段390號,臺北市文山區博嘉里19鄰和平東路四段390號,121.574408,24.998346,140.57218184573722,木柵Muzha
東騰界,臺北市萬華區西昌街134號,臺北市萬華區富民里3鄰西昌街135之1號,121.500773,25.039857,286.0123665467643,龍山寺Longshan Temple
東騰籃,臺北市中山區天祥路61巷,臺北市中山區集英里20鄰天祥路61巷22號,121.521693,25.063296,264.8427635182322,民權西路Minquan W. Rd.
東騰藍,臺北市信義區泰和里19鄰吳興街600巷76弄10號,臺北市信義區泰和里19鄰吳興街600巷76弄10號,121.570555,25.018788,824.6727579784128,象山Xiangshan
東龍小巨蛋TOPONE,臺北市松山區美仁里4鄰南京東路四段52巷3號,臺北市松山區美仁里4鄰南京東路四段52巷3號,121.553724,25.051083,247.86485039108732,台北小巨蛋Taipei Arena
松下?賓,臺北市中山區中山里10鄰中山北路二段77巷7號,臺北市中山區中山里10鄰中山北路二段77巷7號,121.523332,25.057569,301.0950282804233,雙連Shuanglian
松德88,臺北市信義區國業里2鄰松德路89號,臺北市信義區國業里2鄰松德路89號,121.576108,25.038119,160.85790068086615,永春Yongchun
松德長虹,臺北市信義區安康里19鄰松德路169巷21號,臺北市信義區安康里19鄰松德路169巷21號,121.5758,25.036196,276.9820291773803,永春Yongchun
松捷樂,臺北市松山區慈祐里15鄰八德路四段598之6號,臺北市松山區慈祐里15鄰八德路四段598之6號,121.572488,25.049748,580.6149154654504,松山Songshan
松江188,臺北市中山區中吉里14鄰松江路188巷2號,臺北市中山區中吉里14鄰松江路188巷2號,121.532552,25.056728,187.58520601994533,行天宮Xingtian Temple
松江ONE,臺北市中山區新生里8鄰松江路330巷24號,臺北市中山區新生里8鄰松江路330巷24號,121.532064,25.061088,147.93506619616494,行天宮Xingtian Temple
松江阡語,臺北市中山區中吉里16鄰松江路184巷31號,臺北市中山區中吉里16鄰松江路184巷31號,121.531521,25.056673,256.107508491297,行天宮Xingtian Temple
松漢掬雲,臺北市北投區奇岩里3鄰三合街一段38號,臺北市北投區奇岩里3鄰三合街一段38號,121.505932,25.127272,373.5976646495307,唭哩岸Qilian
松蔦青語,臺北市松山區慈祐里7鄰松河街76號,臺北市松山區慈祐里7鄰松河街76號,121.574299,25.050795,380.8863211026108,松山Songshan
松雍,臺北市信義區松勇路69巷1號,臺北市信義區安康里31鄰松勇路69巷1號,121.570075,25.033759,77.48244183097924,象山Xiangshan
松露院,臺北市文山區秀明路二段75號,臺北市文山區萬興里22鄰秀明路二段75號,121.576296,24.991793,503.4525629122032,動物園Taipei Zoo
林語堂,臺北市中正區龍福里20鄰牯嶺街22巷11之1號,臺北市中正區龍福里20鄰牯嶺街22巷11之1號,121.515376,25.03047,347.55728813357774,中正紀念堂Chiang Kai-Shek Memorial Hall
枝盈,臺北市大安區永康里7鄰金山南路二段31巷31號,臺北市大安區永康里7鄰金山南路二段31巷31號,121.528593,25.032851,60.14642623833398,東門Dongmen
柏鴻君臨,臺北市北投區建民里5鄰文林北路60巷23號,臺北市北投區建民里5鄰文林北路60巷23號,121.519094,25.105362,254.86336406382998,明德Mingde
桓桓溫州,臺北市大安區龍坡里18鄰溫州街22巷3之2號,臺北市大安區龍坡里18鄰溫州街22巷3之2號,121.53241,25.023817,504.7946017067928,台電大樓Taipower Building
森仰,臺北市中山區康樂里3鄰中山北路二段27巷19號,臺北市中山區康樂里3鄰中山北路二段27巷19號,121.524463,25.053431,454.74737364377825,中山Zhongshan
森業永春,臺北市信義區忠孝東路五段469號,臺北市信義區富臺里12鄰忠孝東路五段469號,121.577216,25.041034,103.13749638424466,永春Yongchun
森濤苑,臺北市內湖區寶湖里29鄰民權東路六段180巷70弄29號,臺北市內湖區寶湖里29鄰民權東路六段180巷70弄29號,121.591458,25.066891,978.0122521988557,昆陽Kunyang
植建築,臺北市大安區新生南路三段16號,臺北市大安區龍坡里5鄰新生南路三段20之3號,121.534437,25.024125,536.5866759240043,公館Gongguan
楓韻、石,臺北市中正區南門里4鄰博愛路224巷8號,臺北市中正區南門里4鄰博愛路224巷8號,121.509885,25.033933,143.10836534338728,小南門Xiaonanmen
極真,臺北市萬華區和德里24鄰西園路二段322號,臺北市萬華區和德里24鄰西園路二段322號,121.492304,25.025997,995.1861836950067,龍山寺Longshan Temple
榮耀之星,臺北市中山區行孝里1鄰五常街11巷3號,臺北市中山區行孝里1鄰五常街11巷3號,121.538121,25.064526,615.9830678236004,行天宮Xingtian Temple
榮耀西門,臺北市萬華區新起里17鄰漢中街156號,臺北市萬華區新起里17鄰漢中街156號,121.506658,25.041269,189.03529358535957,西門Ximen
榮華一鹿,臺北市北投區榮華一路8號,臺北市北投區榮華里20鄰榮華一路8號,121.52384,25.111892,534.2209800789008,芝山Zhishan
樂揚心閱,臺北市大同區延平里10鄰保安街52號,臺北市大同區延平里10鄰保安街52號,121.512753,25.059049,244.53948151264368,大橋頭Daqiaotou
樂揚映白,臺北市信義區嘉興里14鄰嘉興街175巷6號,臺北市信義區嘉興里14鄰嘉興街175巷6號,121.557578,25.027587,543.535465934025,六張犁Liuzhangli
樂揚煦煦,臺北市萬華區全德里1鄰萬大路386號,臺北市萬華區全德里1鄰萬大路386號,121.498848,25.022216,766.744655910881,龍山寺Longshan Temple
樂行館,臺北市士林區社園里3鄰永平街86號,臺北市士林區社園里3鄰永平街86號,121.505149,25.091809,1549.0314364683531,三重國小Sanchong Elementary School
樸園璞開石,臺北市北投區文林北路7號,臺北市北投區建民里2鄰文林北路10之1號,121.519443,25.104351,319.09694705322363,明德Mingde
樹語院,臺北市文山區木柵里19鄰秀明路一段185巷45號,臺北市文山區木柵里19鄰秀明路一段185巷45號,121.569349,24.993317,336.5565085689347,萬芳社區Wanfang Community
樹說,臺北市內湖區南湖里8鄰民權東路六段280巷155弄201號,臺北市內湖區南湖里8鄰民權東路六段280巷155弄201號,121.609483,25.068446,230.9273681704013,東湖Donghu
欣聯奇岩,臺北市北投區奇岩里26鄰公舘路350巷29號,臺北市北投區奇岩里26鄰公舘路350巷29號,121.504103,25.12406,302.3533089902202,唭哩岸Qilian
欣聯東園綻,臺北市萬華區東園街30號,臺北市萬華區忠德里3鄰東園街30號,121.495715,25.027099,659.4325115552288,龍山寺Longshan Temple
正隆官邸,臺北市中正區文北里17鄰杭州南路一段43號,臺北市中正區文北里17鄰杭州南路一段43號,121.526162,25.04107,394.33926544859764,善導寺Shandao Temple
正隆晶鑽,臺北市南港區三重里27鄰園區街32號,臺北市南港區三重里27鄰園區街32號,121.612692,25.059742,362.7311063628138,南港軟體園區Nangang Software Park
民權匯,臺北市大同區民權西路179號,臺北市大同區民權西路179號,121.5132117,25.0631827,54.84027342770427,大橋頭Daqiaotou
民權好合,臺北市大同區蓬萊里11鄰民權西路205號,臺北市大同區蓬萊里11鄰民權西路205號,121.515214,25.063182,277.3534982517445,大橋頭Daqiaotou
民權首富Ⅱ,臺北市大同區民權里6鄰民權西路146號,臺北市大同區民權里6鄰民權西路146號,121.515811,25.062764,344.891089147432,大橋頭Daqiaotou
民生鉑月,臺北市松山區鵬程里12鄰延壽街18巷19號,臺北市松山區鵬程里12鄰延壽街18巷19號,121.568552,25.056512,512.572275682429,南京三民Nanjing Sanmin
水樹之間,臺北市大安區民炤里11鄰信義路三段39號,臺北市大安區民炤里11鄰信義路三段39號,121.534837,25.033757,21.582680599911516,大安森林公園Daan Park
水研,臺北市士林區明勝里1鄰承德路四段1巷25號,臺北市士林區明勝里1鄰承德路四段1巷25號,121.5223,25.078187,465.5181059936964,圓山Yuanshan
永保安康,臺北市大同區延平里13鄰保安街88號,臺北市大同區延平里13鄰保安街88號,121.511601,25.05894,280.00766387880446,大橋頭Daqiaotou
永信方圓,臺北市北投區三合街一段38號,臺北市北投區奇岩里3鄰三合街一段38號,121.505932,25.127272,373.5976646495307,唭哩岸Qilian
永康壹號,臺北市大安區福住里12鄰永康街1號,臺北市大安區福住里12鄰永康街1號,121.529962,25.033284,139.87631225387997,東門Dongmen
永康麗莊,臺北市大安區永康里2鄰麗水街9巷5號,臺北市大安區永康里2鄰麗水街9巷5號,121.528949,25.030619,189.14516019640607,東門Dongmen
永德言葉,臺北市大同區萬全街1號,臺北市大同區雙連里32鄰萬全街1號,121.520307,25.058817,68.75427908021688,雙連Shuanglian
永筑埕光,臺北市大同區國順里7鄰民族西路340號,臺北市大同區國順里7鄰民族西路340號,121.509298,25.068587,490.6913188055033,大橋頭Daqiaotou
永筑埕曦,臺北市大同區至聖里29鄰民族西路189之3號,臺北市大同區至聖里29鄰民族西路189之3號,121.514837,25.068729,395.72926599881646,大橋頭Daqiaotou
永豐泰雲川,臺北市大同區鄰江里13鄰延平北路四段18號,臺北市大同區鄰江里13鄰延平北路四段18號,121.510774,25.069144,404.87669991405636,大橋頭Daqiaotou
永陞信義安和案,臺北市大安區安和路二段59巷,臺北市大安區通安里6鄰安和路二段59巷21號,121.553122,25.031009,142.10750254385584,信義安和Xinyi Anhe
永陞奕居,臺北市大同區承德路一段88號,臺北市大同區建泰里15鄰承德路一段88號,121.517407,25.053027,328.0538075696507,台北車站Taipei Main Station
永陞韶華-華年(工研館),臺北市大安區民輝里17鄰忠孝東路三段46號,臺北市大安區民輝里17鄰忠孝東路三段46號,121.534954,25.041801,230.11321569603828,忠孝新生Zhongxiao Xinsheng
永陞韶華-韶光(大安館),臺北市大安區民輝里16鄰忠孝東路三段10巷10號,臺北市大安區民輝里16鄰忠孝東路三段10巷10號,121.533424,25.041585,73.08077798054741,忠孝新生Zhongxiao Xinsheng
永陞鳳翎,臺北市松山區南京東路四段120巷30號,臺北市松山區復勢里3鄰南京東路四段120巷30號,121.554739,25.050042,371.78019890664115,台北小巨蛋Taipei Arena
沐山,臺北市士林區天母里6鄰中山北路七段81巷16弄5號,臺北市士林區天母里6鄰中山北路七段81巷16弄5號,121.53031,25.122202,1410.7367512032313,芝山Zhishan
沐松琚,臺北市南港區聯成里14鄰東新街77巷15弄15號,臺北市南港區聯成里14鄰東新街77巷15弄15號,121.588946,25.047464,511.3099074562084,昆陽Kunyang
沐極,臺北市文山區興得里26鄰興隆路三段304巷23號,臺北市文山區興得里26鄰興隆路三段304巷23號,121.558167,24.993846,322.40681987280016,萬芳醫院Wanfang Hospital
泊山妍,臺北市北投區溫泉里9鄰公舘路63巷25號,臺北市北投區溫泉里9鄰公舘路63巷25號,121.505084,25.133493,347.28163387891476,新北投Xinbeitou
泛亞長安,臺北市中山區朱園里7鄰長安東路二段118號,臺北市中山區朱園里7鄰長安東路二段118號,121.536045,25.048303,394.5465641980929,松江南京Songjiang Nanjing
泰彰尚青苑,臺北市文山區華興里20鄰木柵路一段238巷12之1號,臺北市文山區華興里20鄰木柵路一段238巷12之1號,121.554083,24.98719,841.6656578928312,萬芳醫院Wanfang Hospital
清歡,臺北市大安區光明里2鄰杭州南路二段25巷39號,臺北市大安區光明里2鄰杭州南路二段25巷39號,121.525197,25.033422,394.6268821612059,東門Dongmen
湖森堡,臺北市內湖區內湖路三段359號,臺北市內湖區金瑞里18鄰內湖路三段359號,121.583731,25.089292,637.0268881715227,文德Wende
源利御品,臺北市內湖區金湖里2鄰金湖路363巷51弄21號,臺北市內湖區金湖里2鄰金湖路363巷51弄21號,121.600938,25.073668,607.8851250248817,大湖公園Dahu Park
溫州院,臺北市士林師大台北市大安區溫州街25旁,臺北市士林區社子街63巷9弄,121.5025765,25.0880426,1207.5475969157046,三重國小Sanchong Elementary School
溫布敦-19,臺北市內湖區石潭里3鄰民權東路六段210巷68號,臺北市內湖區石潭里3鄰民權東路六段210巷68號,121.597464,25.064858,959.7658535442404,昆陽Kunyang
漢寶西門綻,臺北市萬華區萬壽里3鄰西寧南路121號,臺北市萬華區萬壽里3鄰西寧南路121號,121.506589,25.044633,241.1680655082798,西門Ximen
潤泰信義,臺北市信義區信安街168號,臺北市信義區黎平里6鄰信安街168號,121.555342,25.023439,248.4109230978804,六張犁Liuzhangli
潤泰大安富陽,臺北市大安區臥龍街268號,臺北市大安區黎和里14鄰臥龍街268號,121.558082,25.017347,104.85792627515492,麟光Linguang
潤泰禮仁,臺北市大安區龍泉里8鄰和平東路一段188巷1號,臺北市大安區龍泉里8鄰和平東路一段188巷1號,121.530516,25.026074,406.08716748588466,台電大樓Taipower Building
澐品,臺北市士林區社新里8鄰社子街63巷9弄10號,臺北市士林區社新里8鄰社子街63巷9弄10號,121.507386,25.087923,1550.7090495955192,三重國小Sanchong Elementary School
澧鈺12,臺北市內湖區湖濱里20鄰內湖路二段179巷41之2號,臺北市內湖區湖濱里20鄰內湖路二段179巷41之2號,121.586162,25.083974,353.16119738572513,文德Wende
炎洲晴,臺北市中正區南福里15鄰重慶南路三段27巷11號,臺北市中正區南福里15鄰重慶南路三段27巷11號,121.516287,25.028777,318.42075209171827,中正紀念堂Chiang Kai-Shek Memorial Hall
玉山岩,臺北市北投區奇岩里3鄰三合街一段82巷58之1號,臺北市北投區奇岩里3鄰三合街一段82巷58之1號,121.505146,25.128219,444.2843649323318,唭哩岸Qilian
玉成大樹,臺北市南港區萬福里10鄰同德路66巷12號,臺北市南港區萬福里10鄰同德路66巷12號,121.585303,25.045176,309.31337167466177,後山埤Houshanpi
玉成大賞,臺北市南港區成福里18鄰成福路149巷5弄12之3號,臺北市南港區成福里18鄰成福路149巷5弄12之3號,121.587866,25.041823,623.3261212714154,後山埤Houshanpi
玖原和美,臺北市北投區開明里7鄰中和街252號,臺北市北投區開明里7鄰中和街252號,121.500953,25.139904,246.06353362498393,新北投Xinbeitou
玖原品藏,臺北市中正區幸福里2鄰濟南路一段13巷6號,臺北市中正區幸福里2鄰濟南路一段13巷6號,121.522201,25.042926,157.16517644412787,善導寺Shandao Temple
玖原青,臺北市文山區景美里15鄰萬慶街37巷21號,臺北市文山區景美里15鄰萬慶街37巷21號,121.538101,24.993234,285.63133904403225,景美Jingmei
玖原青-文青區,臺北市文山區景美里13鄰育英街79號,臺北市文山區景美里13鄰育英街79號,121.538814,24.992657,201.3737579333744,景美Jingmei
玖原青-青心區,臺北市文山區景美里13鄰育英街83號,臺北市文山區景美里13鄰育英街83號,121.538877,24.992837,196.38400399589523,景美Jingmei
琢格77,臺北市信義區敦厚里10鄰松隆路78號,臺北市信義區敦厚里10鄰松隆路78號,121.569087,25.044439,469.3780596548469,市政府Taipei City Hall
琢豐,臺北市中山區松江路118號,臺北市中山區興亞里18鄰松江路118號,121.532785,25.051767,35.32472050555673,松江南京Songjiang Nanjing
琢賦,臺北市松山區敦化北路256號,臺北市松山區民有里24鄰敦化北路256號,121.549903,25.060635,270.3674309325495,松山機場Songshan Airport
璞園.榮,臺北市中山區林森北路89號,臺北市中山區正義里4鄰林森北路89號,121.524912,25.049928,352.12384861476187,善導寺Shandao Temple
璞園丹陽,臺北市北投區東陽街499號,臺北市北投區裕民里6鄰東陽街494號,121.520692,25.112006,244.30921575479974,明德Mingde
璞園喆里東,臺北市中正區東門里6鄰丹陽街37號,臺北市中正區東門里6鄰丹陽街37號,121.524388,25.039401,341.4444525015272,善導寺Shandao Temple
璞園天玉,臺北市士林區天玉街27巷27號,臺北市士林區天玉里24鄰天玉街27巷29號,121.528022,25.121862,1240.498722601157,明德Mingde
璞園學豐,臺北市中正區汀州路三段29號31號,臺北市中正區林興里21鄰汀州路三段29號,121.526619,25.019669,182.85780301171826,台電大樓Taipower Building
璞園寬心苑,臺北市北投區石牌路二段307號,臺北市北投區永欣里13鄰石牌路二段307號,121.522994,25.121562,828.4786183964546,明德Mingde
璞園樸園,臺北市松山區中華里16鄰敦化北路145巷11號,臺北市松山區中華里16鄰敦化北路145巷11號,121.549809,25.053719,220.50898955028967,台北小巨蛋Taipei Arena
璞園泊隱,臺北市士林區芝山里28鄰德行東路260巷7號,臺北市士林區芝山里28鄰德行東路260巷7號,121.534567,25.109369,1306.578985612267,士林Shilin
璞園百聿,臺北市中山區力行里30鄰朱崙街11號,臺北市中山區力行里30鄰朱崙街11號,121.537673,25.050193,522.1394584787349,松江南京Songjiang Nanjing
璞園袖里春,臺北市北投區榮華里11鄰榮華一路2巷2之1號,臺北市北投區榮華里11鄰榮華一路2巷2之1號,121.524203,25.112848,599.2440362974706,芝山Zhishan
璞園貴象,臺北市中山區中山北路二段65巷10號,臺北市中山區中山里8鄰中山北路二段65巷10號,121.524052,25.057019,383.5741628895891,雙連Shuanglian
璞晛,臺北市北投區文林北路166巷,臺北市北投區文林里18鄰文林北路166巷3號,121.516144,25.106971,340.52295458916063,明德Mingde
璞有聲-璞日,臺北市士林區至善路一段118號,臺北市士林區至善路一段118號,121.5358536,25.0974945,1094.585808567733,士林Shilin
璞有聲-璞月,臺北市中山區中山北路二段91-1號,臺北市中山區中山北路二段91-1號,121.5230563,25.0593617,284.8825788218299,雙連Shuanglian
璞松綻,臺北市南港區中坡北路110號,臺北市南港區合成里7鄰中坡北路108號,121.580361,25.048622,307.80648844281677,松山Songshan
璞森晴,臺北市內湖區湖濱里24鄰內湖路二段235巷16號,臺北市內湖區湖濱里24鄰內湖路二段235巷16號,121.588832,25.082757,515.2353351373964,文德Wende
璞氏集,臺北市士林區士東路86號,臺北市士林區蘭雅里10鄰士東路86號,121.528797,25.111969,869.7137042205301,芝山Zhishan
璞玥,臺北市北投區致遠一路一段40號,臺北市北投區石牌里11鄰致遠一路一段40號,121.516593,25.108414,262.0016737417232,明德Mingde
璞真上善,臺北市士林區福林里2鄰至善路一段116巷13號,臺北市士林區福林里2鄰至善路一段116巷13號,121.538422,25.096294,1358.1643960484694,大直Dazhi
璞真之道,臺北市中山區中山北路二段91-1號,臺北市中山區聚盛里1鄰中山北路二段91之1號,121.523124,25.059232,289.78237068876047,雙連Shuanglian
璞真宇見,臺北市中正區羅斯福路三段246號,臺北市中正區文盛里7鄰羅斯福路三段272號,121.531904,25.01681,279.867435968698,公館Gongguan
璞真文學,臺北市北投區建民里10鄰文林北路75巷75號,臺北市北投區建民里10鄰文林北路75巷75號,121.517805,25.103321,389.6870405229464,明德Mingde
璞真榮華,臺北市北投區榮華里10鄰榮華二路23號,臺北市北投區榮華里10鄰榮華二路23號,121.523224,25.113395,531.401077680978,明德Mingde
璞知溪,臺北市士林區天壽里11鄰中山北路六段405巷45弄6之1號,臺北市士林區天壽里11鄰中山北路六段405巷45弄6之1號,121.526199,25.115886,850.8595002620865,芝山Zhishan
璞詠川,臺北市士林區明勝里18鄰承德路四段6巷10號,臺北市士林區明勝里18鄰承德路四段6巷10號,121.521029,25.079149,464.38957325047267,圓山Yuanshan
璞風晴,臺北市北投區義理街25號,臺北市北投區永明里1鄰義理街25號,121.515367,25.11684,136.35681607406735,石牌Shipai
甲松富大橋綻,臺北市大同區南芳里11鄰延平北路二段272巷17號,臺北市大同區南芳里11鄰延平北路二段272巷17號,121.510328,25.062145,273.7035669628263,大橋頭Daqiaotou
當代一號院,臺北市大同區隆和里4鄰重慶北路三段20號,臺北市大同區隆和里4鄰重慶北路三段20號,121.513452,25.064883,124.76851415889165,大橋頭Daqiaotou
皇鼎一品,臺北市南港區東新街58號,臺北市南港區萬福里1鄰東新街58號,121.585423,25.047523,353.14919482101106,後山埤Houshanpi
真實永澤,臺北市大安區錦安里16鄰金華街162號,臺北市大安區錦安里16鄰金華街162號,121.530258,25.029686,295.07723304693064,東門Dongmen
睦昇天朗,臺北市北投區石牌路一段166巷71號,臺北市北投區榮光里14鄰石牌路一段166巷73號,121.514835,25.112804,128.31301088769155,石牌Shipai
睦月,臺北市中山區朱園里7鄰建國北路一段42號,臺北市中山區朱園里7鄰建國北路一段42號,121.53633,25.04762,443.0921638795558,松江南京Songjiang Nanjing
睿泰川矅,臺北市中正區詔安街53號,臺北市中正區永功里5鄰詔安街53號,121.511718,25.025666,582.1885424115226,小南門Xiaonanmen
睿泰川端,臺北市中正區汀州路二段275號,臺北市中正區頂東里22鄰汀州路二段275號,121.524206,25.022172,284.90145859468635,古亭Guting
碧水岸,臺北市文山區試院里1鄰和興路116號,臺北市文山區試院里1鄰和興路116號,121.550169,24.985575,992.6884177104374,大坪林Dapinglin
碧湖君品,臺北市內湖區內湖路二段265號,臺北市內湖區內湖里1鄰內湖路二段265號,121.590337,25.082276,459.8079398537362,內湖Neihu
碧湖天,臺北市內湖區紫陽里22鄰文德路210巷30弄85號,臺北市內湖區紫陽里22鄰文德路210巷30弄85號,121.584053,25.076288,152.56835046348053,文德Wende
碧湖文森,臺北市內湖區港富里21鄰內湖路二段81之1號,臺北市內湖區港富里21鄰內湖路二段81之1號,121.582578,25.079951,256.4199996126001,文德Wende
碧湖海川,臺北市內湖區湖濱里31鄰成功路三段146號,臺北市內湖區湖濱里31鄰成功路三段146號,121.58978,25.079868,560.037121165687,內湖Neihu
碧硯閣,臺北市松山區三民路80巷,臺北市松山區自強里26鄰三民路80巷5號,121.564336,25.056602,291.0734522876727,南京三民Nanjing Sanmin
碩樺Artist,臺北市士林區福志里20鄰中山北路五段700號,臺北市士林區福志里20鄰中山北路五段700號,121.527586,25.097769,288.68585917244764,士林Shilin
神隱村,臺北市北投區光明路246號1樓,臺北市北投區溫泉里1鄰光明路246號,121.508211,25.136489,632.2250235212597,新北投Xinbeitou
福一潭美,臺北市內湖區行善里11鄰南京東路六段78號,臺北市內湖區行善里11鄰南京東路六段78號,121.576877,25.054199,254.8777672568816,松山Songshan
禾碩榮星,臺北市中山區行仁里1鄰五常街31號,臺北市中山區行仁里1鄰五常街31號,121.538465,25.064411,647.4505286051603,行天宮Xingtian Temple
禾碩樹晴,臺北市北投區清江里5鄰磺港路78號,臺北市北投區清江里5鄰磺港路78號,121.503469,25.131323,342.27853644791804,新北投Xinbeitou
禾碩沐晴,臺北市北投區中央里8鄰中正街32號,臺北市北投區中央里8鄰中正街32號,121.500727,25.132099,233.32415830371264,北投Beitou
禾碩芝山綻,臺北市士林區文林路689號,臺北市士林區德華里13鄰文林路699號,121.521628,25.101353,139.83578491403858,芝山Zhishan
竹城有樂町,臺北市中正區金門街44巷6弄7號,臺北市中正區金門街44巷6弄7號,121.5188707,25.0211792,537.2712910249586,古亭Guting
第一匯,臺北市大同區隆和里4鄰重慶北路三段42號,臺北市大同區隆和里4鄰重慶北路三段42號,121.513471,25.065496,154.67096695985202,大橋頭Daqiaotou
筑丰天母,臺北市士林區德行里5鄰中山北路六段35巷20號,臺北市士林區德行里5鄰中山北路六段35巷20號,121.524564,25.102938,228.05992309886474,芝山Zhishan
筑丰敦匯,臺北市松山區美仁里8鄰北寧路32巷8號,臺北市松山區美仁里8鄰北寧路32巷8號,121.553126,25.049218,233.8783750276574,台北小巨蛋Taipei Arena
築億丰盛,臺北市大同區蓬萊里13鄰大龍街46巷9號,臺北市大同區蓬萊里13鄰大龍街46巷9號,121.515534,25.064746,324.6659870691864,大橋頭Daqiaotou
築觀,臺北市士林區福志里18鄰中山北路五段616號,臺北市士林區福志里18鄰中山北路五段616號,121.527968,25.096468,257.74183988833016,士林Shilin
紀州樂章,臺北市中正區河堤里19鄰金門街44巷6弄10之2號,臺北市中正區河堤里19鄰金門街44巷6弄10之2號,121.521474,25.020914,352.6040993887424,古亭Guting
紘石仰格,臺北市士林區中山北路五段716號,臺北市士林區福志里20鄰中山北路五段716號,121.52763,25.098033,304.35552837825384,士林Shilin
紫陽新苑,臺北市內湖區內湖里2鄰內湖路二段301巷1號,臺北市內湖區內湖里2鄰內湖路二段301巷1號,121.590772,25.082822,407.2480474742353,內湖Neihu
統創緻,臺北市大安區誠安里10鄰復興南路一段132號,臺北市大安區誠安里10鄰復興南路一段132號,121.543559,25.042807,72.32381061124585,忠孝復興Zhongxiao Fuxing
統創翼,臺北市大安區建國南路一段176號,臺北市大安區義村里11鄰建國南路一段177號,121.537925,25.040707,543.4056190041299,大安森林公園Daan Park
綠意久康,臺北市文山區木柵里13鄰久康街110巷15號,臺北市文山區木柵里13鄰久康街110巷15號,121.568313,24.990088,495.18361747126943,萬芳社區Wanfang Community
綠意晶棧,臺北市中山區恆安里15鄰新生北路三段12號,臺北市中山區恆安里15鄰新生北路三段12號,121.527387,25.063348,114.15617363802903,中山國小Zhongshan Elementary School
綠水湛,臺北市士林區德華里14鄰文林路718號,臺北市士林區德華里14鄰文林路718號,121.520863,25.102488,186.57018166587238,芝山Zhishan
維正里安,臺北市北投區立農街一段333號,臺北市北投區立農里15鄰立農街一段333號,121.50748,25.11952,157.53639712506353,唭哩岸Qilian
綺華翡麗,臺北市文山區萬有里23鄰三福街79號,臺北市文山區萬有里23鄰三福街79號,121.542872,24.997928,421.2538327503439,景美Jingmei
緻信義,臺北市信義區黎順里17鄰基隆路二段201之1號,臺北市信義區黎順里17鄰基隆路二段201之1號,121.553045,25.024443,39.52650415060023,六張犁Liuzhangli
羅丹,臺北市中正區羅斯福路三段244巷9弄3號,臺北市中正區文盛里5鄰羅斯福路三段244巷9弄3號,121.530235,25.017341,302.56449050425334,台電大樓Taipower Building
美好日安,臺北市士林區天祿里14鄰中山北路六段754巷7號,臺北市士林區天祿里14鄰中山北路六段754巷7號,121.528948,25.11523,1006.2377027319769,芝山Zhishan
義泰值境,臺北市內湖區新豐街與號行善路281巷,臺北市內湖區週美里21鄰新豐街36號,121.582703,25.059822,792.4988905980833,松山Songshan
義泰吾境,臺北市內湖區南京東路六段387號,臺北市內湖區週美里26鄰南京東路六段387號,121.584834,25.059581,884.1598141552871,後山埤Houshanpi
義泰田境,臺北市內湖區新豐街與號行善路281巷,臺北市內湖區週美里21鄰新豐街36號,121.582703,25.059822,792.4988905980833,松山Songshan
耑岫,臺北市大安區復興南路一段135巷35號,臺北市大安區光武里24鄰復興南路一段135巷35號,121.545601,25.042769,214.44357170665305,忠孝復興Zhongxiao Fuxing
耑序,臺北市大安區建安里14鄰敦化南路一段187巷23號,臺北市大安區建安里14鄰敦化南路一段187巷23號,121.550445,25.042666,100.24994691231791,忠孝敦化Zhongxiao Dunhua
耕云,臺北市大安區黎和里7鄰和平東路三段434巷7號,臺北市大安區黎和里7鄰和平東路三段434巷7號,121.559366,25.017472,88.96640588936845,麟光Linguang
耕心冉冉,臺北市士林區天母里1鄰中山北路七段190巷27之1號,臺北市士林區天母里1鄰中山北路七段190巷27之1號,121.535207,25.126038,1943.503575036441,芝山Zhishan
耕曦,臺北市大安區古莊里11鄰羅斯福路三段55號,臺北市大安區古莊里11鄰羅斯福路三段55號,121.525645,25.023197,315.22064434959725,台電大樓Taipower Building
耕玥,臺北市中正區螢圃里12鄰廈門街81巷51號,臺北市中正區螢圃里12鄰廈門街81巷51號,121.520034,25.024391,335.73533884160923,古亭Guting
耕隱,臺北市士林區三玉里14鄰忠誠路二段21巷21號,臺北市士林區三玉里14鄰忠誠路二段21巷21號,121.531526,25.109575,1071.296792036735,芝山Zhishan
耕青禾,臺北市中山區恆安里3鄰中山北路二段183巷4之12號,臺北市中山區恆安里3鄰中山北路二段183巷4之12號,121.523773,25.063663,299.5671260252089,中山國小Zhongshan Elementary School
聚昇陽,臺北市中山區新福里1鄰民權東路二段71巷45之1號,臺北市中山區新福里1鄰民權東路二段71巷45之1號,121.531852,25.064364,308.1664939541815,行天宮Xingtian Temple
聽禾,臺北市北投區大業路384號,臺北市北投區中央里16鄰大業路382之1號,121.497506,25.129559,182.4292125747155,北投Beitou
自慢藏,臺北市文山區汀州路四段287號,臺北市文山區萬和里13鄰汀州路四段287號,121.535602,25.000758,388.76323761647484,萬隆Wanlong
至仁愛,臺北市中正區仁愛路二段74號,臺北市中正區三愛里8鄰仁愛路二段74號,121.529949,25.038029,277.91384688410585,東門Dongmen
至善VILLA,臺北市士林區至善路二段90號,臺北市士林區臨溪里3鄰至善路二段90號,121.546186,25.097688,1062.3756866333465,大直Dazhi
興富發T1,臺北市內湖區安康路20號,臺北市內湖區石潭里4鄰安康路20號,121.593028,25.061779,659.8501355954738,昆陽Kunyang
舞春秋,臺北市中正區網溪里9鄰廈門街113巷10之2號,臺北市中正區網溪里9鄰廈門街113巷10之2號,121.51821,25.023353,545.0617962228581,中正紀念堂Chiang Kai-Shek Memorial Hall
舞青,臺北市南港區東新里12鄰興南街64巷26弄12號,臺北市南港區東新里12鄰興南街64巷26弄12號,121.60186,25.055014,562.5706320252463,南港Nangang
良茂詠悅,臺北市士林區前港里16鄰劍潭路57號,臺北市士林區前港里16鄰劍潭路57號,121.520951,25.083907,462.3251724929408,劍潭Jiantan
芯談美商辦大樓,臺北市內湖區石潭里13鄰金莊路92號,臺北市內湖區石潭里13鄰金莊路92號,121.587097,25.063496,913.4275900242088,文德Wende
花沺藏,臺北市北投區三合街一段118巷16號,臺北市北投區奇岩里3鄰三合街一段118巷16號,121.504159,25.127223,351.3094317206864,奇岩Qiyan
花齊匯,臺北市中正區南福里1鄰和平西路一段15號,臺北市中正區南福里1鄰和平西路一段15號,121.5213,25.027016,179.05625389899862,古亭Guting
芳朵,臺北市文山區景行里4鄰羅斯福路六段431號,臺北市文山區景行里4鄰羅斯福路六段431號,121.54021,24.990873,85.09895000907605,景美Jingmei
荷里居,臺北市中正區和平西路二段96號,臺北市中正區龍興里6鄰和平西路二段96號,121.510794,25.029522,350.22560607706345,小南門Xiaonanmen
菁席,臺北市中正區文北里13鄰仁愛路二段43之1號,臺北市中正區文北里13鄰仁愛路二段43之1號,121.528968,25.038471,270.0744741898983,東門Dongmen
菁選集,臺北市大同區南芳里11鄰民權西路292巷22號,臺北市大同區南芳里11鄰民權西路292巷22號,121.510443,25.062332,258.823185460301,大橋頭Daqiaotou
華和淳萃,臺北市中正區網溪里6鄰廈門街149號,臺北市中正區網溪里6鄰廈門街149號,121.517688,25.021695,519.1203241674166,頂溪Dingxi
華固上文林,臺北市北投區文林北路與號文承路交叉口,臺北市北投區文林里15鄰文林北路234之7號,121.514583,25.108808,349.458276877757,石牌Shipai
華固大安學府,臺北市大安區復興南路二段297-1號,臺北市大安區臥龍里8鄰復興南路二段293之3號,121.543576,25.024591,90.56323036874717,科技大樓Technology Building
華固天鑄,臺北市士林區天福里20鄰天母東路8號,臺北市士林區天福里20鄰天母東路8號,121.531383,25.117709,1303.089143607174,芝山Zhishan
華固文臨,臺北市北投區文林里18鄰文林北路176號,臺北市北投區文林里18鄰文林北路176號,121.515916,25.106928,364.210521243362,明德Mingde
華固松疆,臺北市中山區松江路177號,臺北市中山區中央里2鄰松江路177號,121.533351,25.056239,203.15883545356783,行天宮Xingtian Temple
華固翡儷,臺北市北投區西安街二段203號,臺北市北投區立農里19鄰西安街二段203號,121.510091,25.11974,431.9163457389009,唭哩岸Qilian
華固馥儷,臺北市內湖區行善路185號,臺北市內湖區週美里21鄰行善路185號,121.581933,25.059626,726.2655999468732,松山Songshan
華山川,臺北市中山區興亞里10鄰松江路38巷25號,臺北市中山區興亞里10鄰松江路38巷25號,121.53109,25.047636,336.99283822406665,松江南京Songjiang Nanjing
華山錄,臺北市中山區長安東路一段52巷5號,臺北市中山區長安東路一段52巷5號,121.5254616,25.0476057,298.27682448109056,善導寺Shandao Temple
華穗,臺北市萬華區大理街133巷10號,臺北市萬華區糖廍里2鄰大理街133巷11號,121.497288,25.034735,283.9833651220959,龍山寺Longshan Temple
華誼信義-閱明,臺北市信義區中興里1鄰基隆路二段22號,臺北市信義區中興里1鄰基隆路二段22號,121.558728,25.031936,512.010703092066,台北101/世貿Taipei 101/World Trade Center
華誼信義-閱翠,臺北市信義區景聯里4鄰基隆路二段23號,臺北市信義區景聯里4鄰基隆路二段23號,121.559,25.031759,483.6069819002268,台北101/世貿Taipei 101/World Trade Center
華造峰格,臺北市萬華區富福里3鄰康定路257號,臺北市萬華區富福里3鄰康定路257號,121.501258,25.034756,162.11544833340238,龍山寺Longshan Temple
萬企大業,臺北市北投區大業路390號,臺北市北投區大同里12鄰大業路390號,121.497242,25.129892,191.6877753394891,北投Beitou
萬大境,臺北市萬華區錦德里3鄰西園路二段261巷14之1號,臺北市萬華區錦德里3鄰西園路二段261巷14之1號,121.492973,25.02533,956.4458509300598,龍山寺Longshan Temple
萬錦,臺北市萬華區日善里7鄰民和街118號,臺北市萬華區日善里7鄰民和街118號,121.497066,25.02531,655.5043787878888,龍山寺Longshan Temple
蒔璞,臺北市內湖區東湖路113巷70弄7號,臺北市內湖區東湖里18鄰東湖路113巷70弄7號,121.616131,25.071501,579.5764217358407,東湖Donghu
蓮園心邑,臺北市內湖區寶湖里22鄰民權東路六段289巷31號,臺北市內湖區寶湖里22鄰民權東路六段289巷31號,121.601219,25.069382,688.1244888091303,葫洲Huzhou
蔚來之森,臺北市文山區興旺里22鄰福興路97號,臺北市文山區興旺里22鄰福興路97號,121.549145,25.006205,886.3523907258698,辛亥Xinhai
藏美寓,臺北市中山區朱園里7鄰建國北路一段52號,臺北市中山區朱園里7鄰建國北路一段52號,121.536338,25.048022,430.7792216818074,松江南京Songjiang Nanjing
蘭雅琚-蘭庭,臺北市士林區蘭雅里3鄰忠誠路二段40巷22號,臺北市士林區蘭雅里3鄰忠誠路二段40巷22號,121.529149,25.110303,849.5060917185727,芝山Zhishan
虹耀今采,臺北市大安區錦泰里6鄰潮州街55巷12之1號,臺北市大安區錦泰里6鄰潮州街55巷12之1號,121.524116,25.030311,268.2299660807729,古亭Guting
表參漾,臺北市中山區民安里15鄰中山北路二段42巷42號,臺北市中山區民安里15鄰中山北路二段42巷42號,121.520698,25.054627,117.91074784213804,中山Zhongshan
西園町,臺北市萬華區西園路一段36號,臺北市萬華區菜園里25鄰西園路一段36號,121.499788,25.04069,314.3432880362113,龍山寺Longshan Temple
西門H,臺北市萬華區富民里4鄰康定路146號,臺北市萬華區富民里4鄰康定路146號,121.501878,25.039933,353.76164542835676,龍山寺Longshan Temple
親家JIA,臺北市大安區誠安里14鄰安東街35巷25號,臺北市大安區誠安里14鄰安東街35巷25號,121.543245,25.044208,160.860520283517,忠孝復興Zhongxiao Fuxing
詠大直,臺北市內湖區西康里14鄰文湖街21巷116之3號,臺北市內湖區西康里14鄰文湖街21巷116之3號,121.559713,25.091284,591.6427469705943,劍南路Jiannan Rd.
詠綸湛,臺北市松山區安平里11鄰南京東路五段251巷27之2號,臺北市松山區安平里11鄰南京東路五段251巷27之2號,121.565209,25.052848,89.1612176188076,南京三民Nanjing Sanmin
誠美知寓,臺北市中山區力行里16鄰南京東路三段194巷10號,臺北市中山區力行里16鄰南京東路三段194巷10號,121.542674,25.051418,157.63589510042357,南京復興Nanjing Fuxing
誠美頤樺,臺北市中正區梅花里9鄰紹興北街31巷18號,臺北市中正區梅花里9鄰紹興北街31巷18號,121.52605,25.045179,316.69306947503486,善導寺Shandao Temple
豐河畔,臺北市文山區指南里17鄰指南路三段97號,臺北市文山區指南里17鄰指南路三段97號,121.581121,24.982374,942.4919743047985,動物園Taipei Zoo
豐琚,臺北市南港區昆陽街213號,臺北市南港區新光里10鄰昆陽街192號,121.592755,25.04791,159.17566326723562,昆陽Kunyang
豐華匯,臺北市大同區延平里8鄰重慶北路二段150號,臺北市大同區延平里8鄰重慶北路二段150號,121.513469,25.058564,285.13741960533696,大橋頭Daqiaotou
象山主人,臺北市文山區木柵里8鄰木柵路三段51號,臺北市文山區木柵里8鄰木柵路三段51號,121.566261,24.988651,613.4266423741068,萬芳社區Wanfang Community
貴暘御景-豪景樓,臺北市萬華區新起里24鄰貴陽街二段1之2號,臺北市萬華區新起里24鄰貴陽街二段1之2號,121.506882,25.039391,222.6352316572022,西門Ximen
貴暘御景-逸景樓,臺北市萬華區新起里24鄰貴陽街二段3之1號,臺北市萬華區新起里24鄰貴陽街二段3之1號,121.506652,25.039432,239.91813058025795,西門Ximen
躍大直,臺北市中山區大直里3鄰大直街84巷19號,臺北市中山區大直里3鄰大直街84巷19號,121.547394,25.084927,321.88405590512906,大直Dazhi
輕山敘,臺北市內湖區港華里19鄰環山路二段50巷14弄14之7號,臺北市內湖區港華里19鄰環山路二段50巷14弄14之7號,121.571603,25.089794,661.1974977977357,西湖Xihu
連雲景粹,臺北市文山區仙岩路16巷36號,臺北市文山區興安里22鄰仙岩路16巷36號,121.549483,24.997464,967.4532172422386,辛亥Xinhai
連雲臺北學,臺北市中山區民生東路三段65巷,臺北市中山區江山里18鄰民生東路三段65巷6號,121.541811,25.058879,292.0673426997672,中山國中Zhongshan Junior High School
達欣信義文華,臺北市信義區泰和里14鄰吳興街600巷25號,臺北市信義區泰和里14鄰吳興街600巷25號,121.569588,25.020992,689.1420131637574,象山Xiangshan
達欣東匯,臺北市南港區經貿一路75巷,臺北市南港區三重里17鄰經貿一路77號,121.620992,25.057998,419.19120325215647,南港展覽館Taipei Nangang Exhibition Center
達欣東門馥寓,臺北市中正區金山南路一段96號,臺北市中正區文祥里11鄰金山南路一段96號,121.527449,25.035883,185.9848413097728,東門Dongmen
達永秋鄉,臺北市大安區臥龍街291號,臺北市大安區黎和里10鄰臥龍街291號,121.558269,25.017382,88.72140200887914,麟光Linguang
達永豐盛學,臺北市北投區中央北路一段88號,臺北市北投區長安里5鄰中央北路一段90號,121.499859,25.134684,214.16451159781286,北投Beitou
達觀淳境,臺北市文山區景東里19鄰景華街128巷2弄7號,臺北市文山區景東里19鄰景華街128巷2弄7號,121.547259,24.994935,757.8412718793167,景美Jingmei
達麗,臺北市中山區埤頭里12鄰安東街1之7號,臺北市中山區埤頭里12鄰安東街1之7號,121.542097,25.046285,328.38607598279987,忠孝復興Zhongxiao Fuxing
達麗信義,臺北市信義區永春里5鄰忠孝東路五段743巷25號,臺北市信義區永春里5鄰忠孝東路五段743巷25號,121.581001,25.043935,181.26799854357915,後山埤Houshanpi
達麗天蒔,臺北市北投區建民里10鄰文林北路75巷69號,臺北市北投區建民里10鄰文林北路75巷69號,121.517263,25.103325,411.4514956120589,明德Mingde
達麗長安東路案,臺北市中山區正義里6鄰長安東路一段65巷22號,臺北市中山區正義里6鄰長安東路一段65巷22號,121.527441,25.049123,532.9640251358035,善導寺Shandao Temple
遠雄商舟,臺北市北投區承德路六段128號,臺北市北投區建民里10鄰承德路六段128號,121.512478,25.103921,705.0447413015224,石牌Shipai
遠雄宜進I-CITY,臺北市南港區成功路一段62號,臺北市南港區西新里8鄰成功路一段62號,121.59262,25.056417,354.3573548881098,昆陽Kunyang
遠雄山晴,臺北市北投區奇岩里16鄰三合街一段99號,臺北市北投區奇岩里16鄰三合街一段99號,121.504623,25.126702,384.1562855379452,唭哩岸Qilian
遠雄山綺,臺北市北投區奇岩里16鄰三合街一段99號,臺北市北投區奇岩里16鄰三合街一段99號,121.504623,25.126702,384.1562855379452,唭哩岸Qilian
遠雄峰邑,臺北市內湖區週美里25鄰新豐街71號,臺北市內湖區週美里25鄰新豐街71號,121.584079,25.06021,899.4019328481061,後山埤Houshanpi
遠雄常御,臺北市內湖區週美里22鄰新豐街19號,臺北市內湖區週美里22鄰新豐街19號,121.582652,25.059272,765.9070751138297,松山Songshan
遠雄晴川,臺北市文山區木新里1鄰木柵路三段220之1號,臺北市文山區木新里1鄰木柵路三段220之1號,121.569667,24.989439,560.1349641782878,萬芳社區Wanfang Community
遠雄賦邑,臺北市內湖區週美里23鄰行善路181巷37號,臺北市內湖區週美里23鄰行善路181巷37號,121.582421,25.058646,722.1388963013563,松山Songshan
鄉林中山賦,臺北市中山區新福里9鄰吉林路329巷15號,臺北市中山區新福里9鄰吉林路329巷15號,121.530936,25.063984,352.25148433670506,行天宮Xingtian Temple
醍湖,臺北市內湖區港富里19鄰內湖路二段103巷34之3號,臺北市內湖區港富里19鄰內湖路二段103巷34之3號,121.580918,25.081637,464.0056992077141,文德Wende
采吉,臺北市信義區五常里3鄰永吉路225巷7弄7號,臺北市信義區五常里3鄰永吉路225巷7弄7號,121.574512,25.046751,396.1136694515426,永春Yongchun
采采靚心,臺北市文山區興豐里20鄰興順街100號,臺北市文山區興豐里20鄰興順街100號,121.545606,25.001329,729.5197913106527,萬隆Wanlong
里哲,臺北市中正區羅斯福路三段240巷,臺北市中正區文盛里3鄰羅斯福路三段240巷15之1號,121.529264,25.017741,212.03264597028988,台電大樓Taipower Building
金朋馥蓊,臺北市松山區中正里20鄰南京東路三段256巷23號,臺北市松山區中正里20鄰南京東路三段256巷23號,121.544669,25.050646,121.7579684840524,南京復興Nanjing Fuxing
金瑞山,臺北市大同區延平北路二段168號,臺北市大同區大有里19鄰延平北路二段168號,121.511392,25.05815,331.4661583692922,大橋頭Daqiaotou
鉑舍,臺北市中山區聚葉里7鄰錦州街11號,臺北市中山區聚葉里7鄰錦州街11號,121.52417,25.060431,282.57777817338047,中山國小Zhongshan Elementary School
鐫月,臺北市士林區德行東路200號,臺北市士林區聖山里9鄰德行東路200號,121.5316,25.108692,1062.0617325294477,芝山Zhishan
鐫萃,臺北市松山區光復北路103巷,臺北市松山區吉祥里19鄰光復北路103巷24號,121.558969,25.05084,567.3746156149938,國父紀念館Sun Yat-Sen Memorial Hall
鐫豊,臺北市中山區正得里2鄰中山北路一段33巷10號,臺北市中山區正得里2鄰中山北路一段33巷10號,121.521832,25.04871,272.9022083263694,善導寺Shandao Temple
鑄慕,臺北市大安區正聲里3鄰光復南路260巷26之3號,臺北市大安區正聲里3鄰光復南路260巷26之3號,121.556318,25.040386,174.26964174273803,國父紀念館Sun Yat-Sen Memorial Hall
長安馥,臺北市中山區正義里2鄰長安東路一段97號,臺北市中山區正義里2鄰長安東路一段97號,121.528884,25.048262,514.5880016403695,松江南京Songjiang Nanjing
長耀四季,臺北市北投區奇岩里3鄰三合街一段82巷71號,臺北市北投區奇岩里3鄰三合街一段82巷71號,121.504389,25.128482,401.700897394597,奇岩Qiyan
長虹天蔚,臺北市北投區三合街一段110號,臺北市北投區奇岩里3鄰三合街一段110號,121.504358,25.126964,368.7837190697802,奇岩Qiyan
長虹豐匯商業科技大樓,臺北市內湖區行善路365號,臺北市內湖區石潭里13鄰行善路365號,121.585545,25.063492,880.2575040617878,文德Wende
長見豐閱,臺北市大同區平陽街7號,臺北市大同區星明里4鄰平陽街10號,121.516292,25.055152,365.7523943774146,台北車站Taipei Main Station
開誠家圃,臺北市北投區自強街32號,臺北市北投區文林里1鄰自強街32號,121.513121,25.110202,369.55029664695354,石牌Shipai
閱讀中研,臺北市南港區舊莊街一段85號,臺北市南港區舊莊里2鄰舊莊街一段85號,121.61914,25.040852,861.0738377530265,南港展覽館Taipei Nangang Exhibition Center
附中仁,臺北市大安區仁慈里17鄰大安路一段176巷7號,臺北市大安區仁慈里17鄰大安路一段176巷7號,121.545533,25.036514,302.8613472923301,大安Daan
陞遠學,臺北市松山區復勢里3鄰南京東路四段120巷32號,臺北市松山區復勢里3鄰南京東路四段120巷32號,121.554739,25.049949,373.33572809696085,台北小巨蛋Taipei Arena
陶東騰,臺北市大安區民輝里13鄰新生南路一段97巷38號,臺北市大安區民輝里13鄰新生南路一段97巷38號,121.535946,25.041128,345.60297902649023,忠孝新生Zhongxiao Xinsheng
陽明大苑,臺北市士林區福佳里26鄰基河路302號,臺北市士林區福佳里26鄰基河路302號,121.519052,25.093978,653.4088881462749,芝山Zhishan
陽明致遠,臺北市北投區榮光里24鄰致遠一路二段116號,臺北市北投區榮光里24鄰致遠一路二段116號,121.513035,25.113717,284.5389781949507,石牌Shipai
陽明迴鄉,臺北市北投區開明里25鄰翠嶺路7之1號,臺北市北投區開明里25鄰翠嶺路7之1號,121.505996,25.142709,511.05411213181617,新北投Xinbeitou
隆美富邑,臺北市北投區奇岩里26鄰公舘路352號,臺北市北投區奇岩里26鄰公舘路352號,121.504711,25.123211,218.71040895144097,唭哩岸Qilian
隆雲心仝聚,臺北市北投區建民里10鄰文林北路75巷69號,臺北市北投區建民里10鄰文林北路75巷69號,121.517263,25.103325,411.4514956120589,明德Mingde
隱苑,臺北市萬華區錦德里21鄰寶興街140巷12號,臺北市萬華區錦德里21鄰寶興街140巷12號,121.494528,25.024591,855.9544627218954,龍山寺Longshan Temple
雍居仁愛,臺北市中正區文北里14鄰杭州南路一段71巷3之2號,臺北市中正區文北里14鄰杭州南路一段71巷3之2號,121.526246,25.039702,439.02415147756693,東門Dongmen
雍雋品,臺北市中正區龍興里11鄰南海路75號,臺北市中正區龍興里11鄰南海路75號,121.508604,25.029299,441.14182946333347,小南門Xiaonanmen
雙全星,臺北市大同區雙連里9鄰萬全街52之3號,臺北市大同區雙連里9鄰萬全街52之3號,121.519683,25.058544,113.41887034843458,雙連Shuanglian
雙湖匯,臺北市內湖區內湖里24鄰成功路四段178號,臺北市內湖區內湖里24鄰成功路四段178號,121.593582,25.083355,93.56087132213587,內湖Neihu
雲極,臺北市大同區雙連里27鄰民生西路251號,臺北市大同區雙連里27鄰民生西路251號,121.514661,25.057169,414.4249176351962,大橋頭Daqiaotou
青后,臺北市信義區松隆路1號,臺北市信義區敦厚里5鄰松隆路1號,121.566402,25.043503,188.32712173828293,市政府Taipei City Hall
青琉,臺北市大安區龍安里2鄰和平東路一段199巷2之4號,臺北市大安區龍安里2鄰和平東路一段199巷2之4號,121.534116,25.026603,404.13326044973024,大安森林公園Daan Park
青田618,臺北市大安區青田街6巷,臺北市大安區龍安里15鄰青田街6巷4之11號,121.531571,25.028008,463.0840669239012,東門Dongmen
青耘上,臺灣臺北市文山區木柵路一段303號,臺北市文山區華興里25鄰木柵路一段303號,121.554432,24.988235,769.5301644303203,萬芳醫院Wanfang Hospital
青隅,臺北市士林區明勝里18鄰承德路四段2巷21號,臺北市士林區明勝里18鄰承德路四段2巷21號,121.520326,25.079321,463.77800652062143,圓山Yuanshan
靜安樹語,臺北市士林區忠誠路二段98巷7弄2號,臺北市士林區天祿里3鄰忠誠路二段98巷7弄2號,121.53012,25.113251,1032.6594592678748,芝山Zhishan
靜心集,臺北市文山區興業里19鄰辛亥路五段56號,臺北市文山區興業里19鄰辛亥路五段56號,121.553779,24.999583,486.39052835876913,萬芳醫院Wanfang Hospital
韋昌画清江,臺北市北投區清江里8鄰清江路91巷18號,臺北市北投區清江里8鄰清江路91巷18號,121.502185,25.129733,272.8668798157648,奇岩Qiyan
頤禾苑,臺北市中正區詔安街88號,臺北市中正區永功里5鄰詔安街88號,121.512082,25.025417,604.2892449217275,小南門Xiaonanmen
風華系列TwinPark,臺北市南港區經貿二路255巷58號,臺北市南港區三重里21鄰經貿二路255巷58號,121.615014,25.0626,188.6260024821836,南港軟體園區Nangang Software Park
首傅晴海.,臺北市萬華區環河南路二段43號,臺北市萬華區青山里8鄰環河南路二段47號,121.496964,25.038138,358.9510654379612,龍山寺Longshan Temple
首岳,臺北市大同區雙連里29鄰寧夏路94號,臺北市大同區雙連里29鄰寧夏路94號,121.514967,25.058608,367.9800987788131,大橋頭Daqiaotou
首席公館,臺北市信義區松仁路136號,臺北市信義區三張里34鄰松仁路136號,121.567927,25.032188,187.13034693890216,象山Xiangshan
首敦旭日,臺北市內湖區內湖路三段209號,臺北市內湖區碧山里18鄰內湖路三段209號,121.58793,25.088443,676.2923282872194,文德Wende
首泰城人之美,臺北市中山區力行里28鄰建國北路一段73號,臺北市中山區力行里28鄰建國北路一段73號,121.53715,25.051293,455.0607064062185,松江南京Songjiang Nanjing
首泰大喆,臺北市南港區三重路39號旁,臺北市南港區三重里9鄰三重路39號,121.614093,25.059543,207.89616413258648,南港軟體園區Nangang Software Park
香榭帝寶,臺北市南港區重陽路21號,臺北市南港區重陽里10鄰重陽路21號,121.595403,25.055689,386.1541631420903,昆陽Kunyang
馥新綻,臺北市北投區桃源里10鄰中央北路三段142號,臺北市北投區桃源里10鄰中央北路三段142號,121.482947,25.137297,277.84393307137213,復興崗Fuxinggang
鳴森苑,臺北市松山區延壽街105號,臺北市松山區富泰里1鄰延壽街105號,121.565738,25.057144,339.57076054881105,南京三民Nanjing Sanmin
麒源·拓,臺北市北投區公舘路326巷5號,臺北市北投區奇岩里20鄰公舘路326巷8號,121.505482,25.124404,222.38371137121726,唭哩岸Qilian
麗湖嵐天,臺北市內湖區金湖里23鄰金湖路347巷88號,臺北市內湖區金湖里23鄰金湖路347巷88號,121.598887,25.074216,667.5950028598196,大湖公園Dahu Park
麗盛南京,臺北市大同區玉泉里10鄰南京西路448號,臺北市大同區玉泉里10鄰南京西路448號,121.508272,25.053398,308.39055545799414,北門Beimen
鼎佳,臺北市中正區板溪里6鄰牯嶺街95巷8號,臺北市中正區板溪里6鄰牯嶺街95巷8號,121.519703,25.025987,353.14359761718447,古亭Guting
鼎吉中山,臺北市中山區吉林路316號,臺北市中山區新生里13鄰吉林路316號,121.530141,25.062252,369.1622111993523,行天宮Xingtian Temple
鼎吉中山VISION,臺北市中山區吉林路316號,臺北市中山區新生里13鄰吉林路316號,121.530141,25.062252,369.1622111993523,行天宮Xingtian Temple
鼎吉水岸,臺北市中正區螢雪里12鄰水源路165之2號,臺北市中正區螢雪里12鄰水源路165之2號,121.514973,25.02409,599.5883336078969,頂溪Dingxi
鼎隆苑,臺北市文山區興豐里10鄰興隆路二段25巷20之1號,臺北市文山區興豐里10鄰興隆路二段25巷20之1號,121.545682,24.999786,719.2560439114916,景美Jingmei
龍霖初心,臺北市北投區永欣里13鄰石牌路二段315巷6之3號,臺北市北投區永欣里13鄰石牌路二段315巷6之3號,121.522989,25.122212,859.8340227242032,明德Mingde
